{
  "type"    : "FeatureCollection",
  "features": [
    {
      "type"      : "Feature",
      "properties": {},
      "geometry"  : {
        "coordinates": [
          [
            [ -2.1278007761625304 , 43.57467076628129 ],
            [ -7.715794411452777  , 44.15023151383642 ],
            [ -9.200975444088385  , 43.802882179790146],
            [ -9.813612620050378  , 43.183365539669154],
            [ -9.145281155364671  , 41.31464717551293 ],
            [-10.166343115301572  , 38.93015119636152 ],
            [ -9.47944688770798   , 37.94133060294246 ],
            [ -9.553705939339636  , 36.507498536835314],
            [ -7.1774162871224405 , 36.656574305204245],
            [ -6.639038162792133  , 35.89328560336001 ],
            [ -4.968209501077467  , 36.04353773961459 ],
            [ -2.2948836423346677 , 36.507498536835314],
            [ -0.6240549806199738 , 37.323843710052415],
            [  0.5640898454880983 , 38.56818910306828 ],
            [  0.1742298244219853 , 39.53410797677094 ],
            [  1.8821880119525076 , 40.894988558089324],
            [  3.571581436575144  , 41.78701479758632 ],
            [  3.404498570403973  , 42.69409577807056 ],
            [  2.142094692663221  , 42.7213794071219  ],
            [  1.028208918186806  , 43.047847287493255],
            [ -0.12280638210546613, 42.99355596277681 ],
            [ -2.1278007761625304 , 43.57467076628129 ]
          ]
        ],
        "type"       : "Polygon"
      }
    }
  ]
}
