{
    "type": "FeatureCollection",
    "features": [
        {
            "type": "Feature",
            "properties": {},
            "geometry" : {
                "type": "Polygon",
                "coordinates": [
                    [
                        [162.215255, 11.693998],
                        [162.189280, 11.691132],
                        [162.155256, 11.679667],
                        [162.108062, 11.647063],
                        [162.080989, 11.620546],
                        [162.057209, 11.595102],
                        [162.037819, 11.570014],
                        [162.026112, 11.541340],
                        [162.031600, 11.508360],
                        [162.059038, 11.491510],
                        [162.063429, 11.466055],
                        [162.083184, 11.440955],
                        [162.108062, 11.407247],
                        [162.144647, 11.364209],
                        [162.181232, 11.342329],
                        [162.232816, 11.329416],
                        [162.284035, 11.324035],
                        [162.312937, 11.325828],
                        [162.345132, 11.333362],
                        [162.368180, 11.353090],
                        [162.386472, 11.401150],
                        [162.398911, 11.426971],
                        [162.407326, 11.461394],
                        [162.402204, 11.484699],
                        [162.379155, 11.519115],
                        [162.372570, 11.537397],
                        [162.356839, 11.564279],
                        [162.342936, 11.574315],
                        [162.345132, 11.606212],
                        [162.331595, 11.630580],
                        [162.314400, 11.638463],
                        [162.279645, 11.645988],
                        [162.261352, 11.657454],
                        [162.251109, 11.676443],
                        [162.215255, 11.693998]

                  ],
                    [
                        [162.188549, 11.645988],
                        [162.220743, 11.648138],
                        [162.254767, 11.628430],
                        [162.288791, 11.613021],
                        [162.308181, 11.605853],
                        [162.316961, 11.568939],
                        [162.334156, 11.537397],
                        [162.376594, 11.475735],
                        [162.376594, 11.448127],
                        [162.352083, 11.437011],
                        [162.346595, 11.414778],
                        [162.359034, 11.401509],
                        [162.335985, 11.367796],
                        [162.308181, 11.351655],
                        [162.248182, 11.353090],
                        [162.188549, 11.373535],
                        [162.166598, 11.384653],
                        [162.136232, 11.420516],
                        [162.107330, 11.455657],
                        [162.097087, 11.469999],
                        [162.088672, 11.495454],
                        [162.080623, 11.522700],
                        [162.071477, 11.544566],
                        [162.094160, 11.572881],
                        [162.101477, 11.593668],
                        [162.138793, 11.624129],
                        [162.188549, 11.645988]
                    ]
                ]
            }
        },
        {
            "type": "Feature",
            "properties": {},
            "geometry" : {
                "type": "Polygon",
                "coordinates": [
                    [
                        [160.884274, 9.866083],
                        [160.821810, 9.888668],
                        [160.798676, 9.878723],
                        [160.781850, 9.859867],
                        [160.782481, 9.835830],
                        [160.801620, 9.826919],
                        [160.831064, 9.819045],
                        [160.870393, 9.802673],
                        [160.908250, 9.782362],
                        [160.935801, 9.763916],
                        [160.975971, 9.752309],
                        [161.002260, 9.758112],
                        [161.004364, 9.792518],
                        [160.981860, 9.813864],
                        [160.955991, 9.821324],
                        [160.927599, 9.840182],
                        [160.913718, 9.867741],
                        [160.884274, 9.866083]
                    ]
                ]
            }
        }
    ]
}
