{"type": "FeatureCollection", "features": [{"type": "Feature", "properties": {}, "geometry": {"type": "LineString", "coordinates": [[-0.3816966, 39.4577943], [-0.3816678, 39.4579456], [-0.3812622, 39.459525]]}}, {"type": "Feature", "properties": {}, "geometry": {"type": "LineString", "coordinates": [[-0.3816327, 39.4563036], [-0.3816942, 39.4565376], [-0.3817296, 39.4567242], [-0.3817527, 39.456876], [-0.3817689, 39.4570559], [-0.3817721, 39.4572121], [-0.3817638, 39.4573666], [-0.3817381, 39.4575838], [-0.3816966, 39.4577943]]}}, {"type": "Feature", "properties": {}, "geometry": {"type": "LineString", "coordinates": [[-0.381391, 39.4555667], [-0.3814373, 39.4557433], [-0.3814659, 39.4558326], [-0.381496, 39.4559154], [-0.3815257, 39.4559949], [-0.3815717, 39.4561177], [-0.3816047, 39.4562136], [-0.3816327, 39.4563036]]}}, {"type": "Feature", "properties": {}, "geometry": {"type": "LineString", "coordinates": [[-0.3812651, 39.4550325], [-0.381291, 39.4551894], [-0.3813164, 39.4553103], [-0.3813353, 39.4553722], [-0.381391, 39.4555667]]}}, {"type": "Feature", "properties": {}, "geometry": {"type": "LineString", "coordinates": [[-0.382563, 39.4522939], [-0.3824245, 39.4524339], [-0.3822313, 39.4526087], [-0.3820588, 39.4527722], [-0.3819803, 39.4528583], [-0.3818867, 39.4529822], [-0.381791, 39.453131], [-0.3817251, 39.4532601], [-0.3816556, 39.4534282], [-0.3813665, 39.4542502], [-0.381329, 39.4543685], [-0.381307, 39.4544535], [-0.3812841, 39.4545425], [-0.3812728, 39.4546222], [-0.3812611, 39.4547364], [-0.3812588, 39.4548301], [-0.3812576, 39.4549082], [-0.3812651, 39.4550325]]}}, {"type": "Feature", "properties": {}, "geometry": {"type": "LineString", "coordinates": [[-0.3839254, 39.4489644], [-0.3838943, 39.4490761], [-0.3838513, 39.4491949], [-0.3834807, 39.4502024], [-0.3833274, 39.4506553], [-0.3833122, 39.4507003], [-0.3830897, 39.4513078], [-0.3829663, 39.4516525], [-0.3828999, 39.4518066], [-0.3828007, 39.4519815], [-0.3827131, 39.4521103], [-0.382563, 39.4522939]]}}, {"type": "Feature", "properties": {}, "geometry": {"type": "LineString", "coordinates": [[-0.3840498, 39.4465872], [-0.3839331, 39.4469471], [-0.3838815, 39.4470992], [-0.3838513, 39.4472354], [-0.383837, 39.4473759], [-0.3838319, 39.4475944], [-0.3838526, 39.4477753], [-0.3838835, 39.4479655], [-0.383926, 39.4481596], [-0.383952, 39.4483217], [-0.3839665, 39.4484558], [-0.3839666, 39.4485906], [-0.3839597, 39.4487274], [-0.383944, 39.4488554], [-0.3839254, 39.4489644]]}}, {"type": "Feature", "properties": {}, "geometry": {"type": "LineString", "coordinates": [[-0.3898579, 39.4416595], [-0.3894464, 39.4417327], [-0.3890413, 39.4418245], [-0.3886438, 39.4419345], [-0.3882555, 39.4420624], [-0.3878775, 39.4422077], [-0.3875057, 39.44236], [-0.3871249, 39.44253], [-0.3867472, 39.4427158], [-0.3864126, 39.4429124], [-0.3860888, 39.4431262], [-0.3859131, 39.4432616], [-0.3858012, 39.4433479], [-0.3855228, 39.4435965], [-0.3852603, 39.4438782], [-0.3850476, 39.4441469], [-0.3848781, 39.4444667], [-0.3847343, 39.4447714], [-0.3840498, 39.4465872]]}}, {"type": "Feature", "properties": {}, "geometry": {"type": "LineString", "coordinates": [[-0.3923778, 39.4416199], [-0.391959, 39.4415786], [-0.3915378, 39.4415565], [-0.3911156, 39.4415536], [-0.3906939, 39.4415698], [-0.3902742, 39.4416052], [-0.3898579, 39.4416595]]}}, {"type": "Feature", "properties": {}, "geometry": {"type": "LineString", "coordinates": [[-0.3943882, 39.4421061], [-0.3940001, 39.4419719], [-0.3936053, 39.4418564], [-0.3932024, 39.441759], [-0.3927928, 39.4416801], [-0.3923778, 39.4416199]]}}, {"type": "Feature", "properties": {}, "geometry": {"type": "LineString", "coordinates": [[-0.3976895, 39.4435285], [-0.39725, 39.4433366], [-0.3954686, 39.4425209], [-0.3951161, 39.4423727], [-0.3947562, 39.4422356], [-0.3943882, 39.4421061]]}}, {"type": "Feature", "properties": {}, "geometry": {"type": "LineString", "coordinates": [[-0.4017188, 39.4445923], [-0.4012317, 39.4445287], [-0.4007674, 39.444456], [-0.4003076, 39.4443679], [-0.3998531, 39.4442646], [-0.3994048, 39.4441464], [-0.3989635, 39.4440134], [-0.39853, 39.4438659], [-0.398105, 39.4437042], [-0.3976895, 39.4435285]]}}, {"type": "Feature", "properties": {}, "geometry": {"type": "LineString", "coordinates": [[-0.406251, 39.4448038], [-0.4026372, 39.444668], [-0.4021279, 39.444634], [-0.4017188, 39.4445923]]}}, {"type": "Feature", "properties": {}, "geometry": {"type": "LineString", "coordinates": [[-0.4083346, 39.4448836], [-0.4078258, 39.4448584], [-0.406251, 39.4448038]]}}, {"type": "Feature", "properties": {}, "geometry": {"type": "LineString", "coordinates": [[-0.4148097, 39.4458398], [-0.4126414, 39.4454465], [-0.4120404, 39.4453334], [-0.4114363, 39.4452305], [-0.4108295, 39.4451379], [-0.4102201, 39.4450556], [-0.4096085, 39.4449838], [-0.4089951, 39.4449224], [-0.4083346, 39.4448836]]}}, {"type": "Feature", "properties": {}, "geometry": {"type": "LineString", "coordinates": [[-0.4171283, 39.4462593], [-0.4160143, 39.4460646], [-0.4148097, 39.4458398]]}}, {"type": "Feature", "properties": {}, "geometry": {"type": "LineString", "coordinates": [[-0.4189862, 39.4465354], [-0.4171283, 39.4462593]]}}, {"type": "Feature", "properties": {}, "geometry": {"type": "LineString", "coordinates": [[-0.4235188, 39.4469217], [-0.4227937, 39.44686], [-0.4203055, 39.4466741], [-0.4193691, 39.4465847], [-0.4189862, 39.4465354]]}}, {"type": "Feature", "properties": {}, "geometry": {"type": "LineString", "coordinates": [[-0.4249509, 39.4470883], [-0.424235, 39.4469936], [-0.4235188, 39.4469217]]}}, {"type": "Feature", "properties": {}, "geometry": {"type": "LineString", "coordinates": [[-0.4296638, 39.4480416], [-0.4290718, 39.4478947], [-0.4284921, 39.4477538], [-0.427909, 39.4476214], [-0.4273228, 39.4474976], [-0.4267337, 39.4473823], [-0.4261419, 39.4472756], [-0.4255476, 39.4471776], [-0.4249509, 39.4470883]]}}, {"type": "Feature", "properties": {}, "geometry": {"type": "LineString", "coordinates": [[-0.4298616, 39.4480917], [-0.4296638, 39.4480416]]}}, {"type": "Feature", "properties": {}, "geometry": {"type": "LineString", "coordinates": [[-0.4319272, 39.448637], [-0.4310937, 39.4484217], [-0.4298616, 39.4480917]]}}, {"type": "Feature", "properties": {}, "geometry": {"type": "LineString", "coordinates": [[-0.4353188, 39.4493473], [-0.4344631, 39.4491925], [-0.4338668, 39.4490722], [-0.4336123, 39.4490224], [-0.4327669, 39.4488372], [-0.4319272, 39.448637]]}}, {"type": "Feature", "properties": {}, "geometry": {"type": "LineString", "coordinates": [[-0.4354538, 39.4493693], [-0.4353188, 39.4493473]]}}, {"type": "Feature", "properties": {}, "geometry": {"type": "LineString", "coordinates": [[-0.4474917, 39.4498992], [-0.4459535, 39.4499723], [-0.4448189, 39.4499965], [-0.4436765, 39.4500127], [-0.4424763, 39.4500026], [-0.4417223, 39.4499877], [-0.4408948, 39.4499545], [-0.4398941, 39.4498954], [-0.4389349, 39.4498194], [-0.4379947, 39.4497257], [-0.4370056, 39.4496045], [-0.436249, 39.4495005], [-0.4354538, 39.4493693]]}}, {"type": "Feature", "properties": {}, "geometry": {"type": "LineString", "coordinates": [[-0.4547189, 39.4492635], [-0.4536821, 39.4493932], [-0.4519717, 39.4495703], [-0.4505437, 39.4497], [-0.4490038, 39.4498111], [-0.4474917, 39.4498992]]}}, {"type": "Feature", "properties": {}, "geometry": {"type": "LineString", "coordinates": [[-0.4888617, 39.4437147], [-0.486672, 39.4437606], [-0.4844859, 39.4438668], [-0.4823061, 39.4440331], [-0.4801353, 39.4442593], [-0.4779763, 39.4445452], [-0.475832, 39.4448903], [-0.4737049, 39.4452943], [-0.4715978, 39.4457566], [-0.4693889, 39.4462915], [-0.4652907, 39.447347], [-0.4634708, 39.4477769], [-0.4616354, 39.4481656], [-0.4597861, 39.4485126], [-0.4579244, 39.4488178], [-0.4547189, 39.4492635]]}}, {"type": "Feature", "properties": {}, "geometry": {"type": "LineString", "coordinates": [[-0.4986081, 39.4441907], [-0.4974779, 39.4440957], [-0.4962518, 39.4439907], [-0.4950234, 39.4439027], [-0.4937932, 39.4438317], [-0.4925615, 39.4437778], [-0.4913288, 39.443741], [-0.4900954, 39.4437213], [-0.4888617, 39.4437147]]}}, {"type": "Feature", "properties": {}, "geometry": {"type": "LineString", "coordinates": [[-0.5020073, 39.4446116], [-0.5003099, 39.4443899], [-0.4986081, 39.4441907]]}}, {"type": "Feature", "properties": {}, "geometry": {"type": "LineString", "coordinates": [[-0.5059576, 39.4452323], [-0.505175, 39.4450813], [-0.5043883, 39.4449437], [-0.5035978, 39.4448195], [-0.502804, 39.4447088], [-0.5020073, 39.4446116]]}}, {"type": "Feature", "properties": {}, "geometry": {"type": "LineString", "coordinates": [[-0.5159431, 39.4476104], [-0.5133797, 39.446901], [-0.5121572, 39.4465874], [-0.5107407, 39.4462421], [-0.5091383, 39.4458753], [-0.5076208, 39.445556], [-0.5059576, 39.4452323]]}}, {"type": "Feature", "properties": {}, "geometry": {"type": "LineString", "coordinates": [[-0.5170546, 39.447929], [-0.5159431, 39.4476104]]}}, {"type": "Feature", "properties": {}, "geometry": {"type": "LineString", "coordinates": [[-0.5516587, 39.4587928], [-0.5311672, 39.4520648], [-0.5297626, 39.4516137], [-0.5275342, 39.4509258], [-0.5170546, 39.447929]]}}, {"type": "Feature", "properties": {}, "geometry": {"type": "LineString", "coordinates": [[-0.5544619, 39.459713], [-0.5516587, 39.4587928]]}}, {"type": "Feature", "properties": {}, "geometry": {"type": "LineString", "coordinates": [[-0.5580596, 39.4609209], [-0.5562673, 39.4603054], [-0.5544619, 39.459713]]}}, {"type": "Feature", "properties": {}, "geometry": {"type": "LineString", "coordinates": [[-0.5631048, 39.4628413], [-0.5621109, 39.462434], [-0.5611089, 39.4620388], [-0.5600995, 39.4616548], [-0.559083, 39.4612821], [-0.5580596, 39.4609209]]}}, {"type": "Feature", "properties": {}, "geometry": {"type": "LineString", "coordinates": [[-0.5697002, 39.4657214], [-0.5655593, 39.463885], [-0.5643351, 39.4633589], [-0.5631048, 39.4628413]]}}, {"type": "Feature", "properties": {}, "geometry": {"type": "LineString", "coordinates": [[-0.5702129, 39.4659446], [-0.5697002, 39.4657214]]}}, {"type": "Feature", "properties": {}, "geometry": {"type": "LineString", "coordinates": [[-0.5890596, 39.4717865], [-0.5874184, 39.4714517], [-0.5857873, 39.4710886], [-0.5841672, 39.4706973], [-0.582559, 39.470278], [-0.5809633, 39.4698309], [-0.579381, 39.4693563], [-0.5778129, 39.4688544], [-0.5768647, 39.4685314], [-0.5762598, 39.4683254], [-0.5747225, 39.4677697], [-0.5732017, 39.4671874], [-0.5716982, 39.4665789], [-0.5702129, 39.4659446]]}}, {"type": "Feature", "properties": {}, "geometry": {"type": "LineString", "coordinates": [[-0.5897274, 39.4719147], [-0.5890596, 39.4717865]]}}, {"type": "Feature", "properties": {}, "geometry": {"type": "LineString", "coordinates": [[-0.6427036, 39.4726201], [-0.6345664, 39.4729588], [-0.6233518, 39.4734278], [-0.6182065, 39.4736382], [-0.6160477, 39.4737028], [-0.6144514, 39.4737311], [-0.6127006, 39.4737556], [-0.6094636, 39.4737392], [-0.6073728, 39.4736841], [-0.6053137, 39.4736116], [-0.6034376, 39.4735076], [-0.6020714, 39.4734245], [-0.6005659, 39.4733119], [-0.5987522, 39.4731594], [-0.5969342, 39.4729812], [-0.5953604, 39.4727935], [-0.5936245, 39.4725621], [-0.5919676, 39.4723116], [-0.5906953, 39.4720912], [-0.5897274, 39.4719147]]}}, {"type": "Feature", "properties": {}, "geometry": {"type": "LineString", "coordinates": [[-0.6479004, 39.4723985], [-0.6427036, 39.4726201]]}}, {"type": "Feature", "properties": {}, "geometry": {"type": "LineString", "coordinates": [[-0.6941835, 39.4648326], [-0.6929152, 39.4653347], [-0.6915742, 39.4658457], [-0.69019, 39.4663463], [-0.6892192, 39.4666797], [-0.6873106, 39.4673026], [-0.6856908, 39.4677921], [-0.6839982, 39.4682699], [-0.6824651, 39.4686811], [-0.6804464, 39.4691622], [-0.6786154, 39.4695588], [-0.6771545, 39.4698487], [-0.6759529, 39.4700754], [-0.674255, 39.4703555], [-0.6726672, 39.4705982], [-0.6704931, 39.4708821], [-0.6686224, 39.4710941], [-0.6660201, 39.4713528], [-0.6636535, 39.471558], [-0.6598811, 39.4718298], [-0.6562488, 39.4720425], [-0.6479004, 39.4723985]]}}, {"type": "Feature", "properties": {}, "geometry": {"type": "LineString", "coordinates": [[-0.6958466, 39.4641317], [-0.6950173, 39.4644854], [-0.6941835, 39.4648326]]}}, {"type": "Feature", "properties": {}, "geometry": {"type": "LineString", "coordinates": [[-0.7117651, 39.4561942], [-0.7106632, 39.4566925], [-0.7096358, 39.4571767], [-0.7085193, 39.4577217], [-0.7075245, 39.4582256], [-0.7053202, 39.459387], [-0.701423, 39.4614698], [-0.6999251, 39.4622343], [-0.6986736, 39.4628455], [-0.6972322, 39.4635167], [-0.6958466, 39.4641317]]}}, {"type": "Feature", "properties": {}, "geometry": {"type": "LineString", "coordinates": [[-0.7185284, 39.4535276], [-0.7162421, 39.4543677], [-0.7139871, 39.4552568], [-0.7117651, 39.4561942]]}}, {"type": "Feature", "properties": {}, "geometry": {"type": "LineString", "coordinates": [[-0.7263799, 39.4512035], [-0.7243822, 39.4517121], [-0.7224064, 39.4522693], [-0.7204544, 39.4528747], [-0.7185284, 39.4535276]]}}, {"type": "Feature", "properties": {}, "geometry": {"type": "LineString", "coordinates": [[-0.7266798, 39.4511299], [-0.7263799, 39.4512035]]}}, {"type": "Feature", "properties": {}, "geometry": {"type": "LineString", "coordinates": [[-0.7332002, 39.4497864], [-0.7315532, 39.4500715], [-0.7299166, 39.4503906], [-0.7282918, 39.4507434], [-0.7266798, 39.4511299]]}}, {"type": "Feature", "properties": {}, "geometry": {"type": "LineString", "coordinates": [[-0.7443901, 39.4482652], [-0.7421461, 39.4485517], [-0.7399021, 39.4488392], [-0.7376625, 39.4491247], [-0.7354272, 39.4494334], [-0.7332002, 39.4497864]]}}, {"type": "Feature", "properties": {}, "geometry": {"type": "LineString", "coordinates": [[-0.7705506, 39.4467324], [-0.7681629, 39.4466739], [-0.7657647, 39.4466586], [-0.7633787, 39.4466751], [-0.7609885, 39.4467431], [-0.7586045, 39.4468511], [-0.756221, 39.4469898], [-0.7538473, 39.4471778], [-0.7514682, 39.4474056], [-0.7491077, 39.4476753], [-0.7467453, 39.4479671], [-0.7443901, 39.4482652]]}}, {"type": "Feature", "properties": {}, "geometry": {"type": "LineString", "coordinates": [[-0.7926646, 39.4492603], [-0.7895489, 39.4487033], [-0.7864148, 39.4482116], [-0.7832646, 39.4477854], [-0.7801006, 39.4474253], [-0.7769252, 39.4471313], [-0.7737406, 39.4469038], [-0.7705506, 39.4467324]]}}, {"type": "Feature", "properties": {}, "geometry": {"type": "LineString", "coordinates": [[-0.7928698, 39.4493026], [-0.7926646, 39.4492603]]}}, {"type": "Feature", "properties": {}, "geometry": {"type": "LineString", "coordinates": [[-0.7935231, 39.4494328], [-0.7928698, 39.4493026]]}}, {"type": "Feature", "properties": {}, "geometry": {"type": "LineString", "coordinates": [[-0.7956247, 39.449883], [-0.7935231, 39.4494328]]}}, {"type": "Feature", "properties": {}, "geometry": {"type": "LineString", "coordinates": [[-0.8771507, 39.4613836], [-0.871083, 39.4621401], [-0.864963, 39.4625961], [-0.8588178, 39.4627494], [-0.8526724, 39.4625995], [-0.846552, 39.462147], [-0.8404815, 39.4613937], [-0.8344857, 39.4603426], [-0.828589, 39.4589981], [-0.8228156, 39.4573656], [-0.7982635, 39.4505221], [-0.7956247, 39.449883]]}}, {"type": "Feature", "properties": {}, "geometry": {"type": "LineString", "coordinates": [[-0.881436, 39.4608085], [-0.8771507, 39.4613836]]}}, {"type": "Feature", "properties": {}, "geometry": {"type": "LineString", "coordinates": [[-0.8862492, 39.4603068], [-0.881436, 39.4608085]]}}, {"type": "Feature", "properties": {}, "geometry": {"type": "LineString", "coordinates": [[-0.8875882, 39.4601862], [-0.8862492, 39.4603068]]}}, {"type": "Feature", "properties": {}, "geometry": {"type": "LineString", "coordinates": [[-0.8902878, 39.4599564], [-0.8875882, 39.4601862]]}}, {"type": "Feature", "properties": {}, "geometry": {"type": "LineString", "coordinates": [[-0.9074677, 39.4585679], [-0.9047058, 39.4587418], [-0.8902878, 39.4599564]]}}, {"type": "Feature", "properties": {}, "geometry": {"type": "LineString", "coordinates": [[-0.9103767, 39.4584565], [-0.9089215, 39.4585003], [-0.9074677, 39.4585679]]}}, {"type": "Feature", "properties": {}, "geometry": {"type": "LineString", "coordinates": [[-0.9137741, 39.4584261], [-0.9120753, 39.4584324], [-0.9103767, 39.4584565]]}}, {"type": "Feature", "properties": {}, "geometry": {"type": "LineString", "coordinates": [[-0.9297806, 39.4597307], [-0.9271294, 39.4594065], [-0.92447, 39.4591249], [-0.9218037, 39.4588859], [-0.9191315, 39.4586897], [-0.9164546, 39.4585365], [-0.9137741, 39.4584261]]}}, {"type": "Feature", "properties": {}, "geometry": {"type": "LineString", "coordinates": [[-0.9348311, 39.4606044], [-0.9327998, 39.4602339], [-0.9297806, 39.4597307]]}}, {"type": "Feature", "properties": {}, "geometry": {"type": "LineString", "coordinates": [[-0.9351471, 39.4606632], [-0.9348311, 39.4606044]]}}, {"type": "Feature", "properties": {}, "geometry": {"type": "LineString", "coordinates": [[-0.9599773, 39.4651892], [-0.9572551, 39.464711], [-0.9558658, 39.4644565], [-0.9518904, 39.4637251], [-0.9437717, 39.4622433], [-0.9400854, 39.4615708], [-0.9351471, 39.4606632]]}}, {"type": "Feature", "properties": {}, "geometry": {"type": "LineString", "coordinates": [[-0.9610075, 39.4653618], [-0.9599773, 39.4651892]]}}, {"type": "Feature", "properties": {}, "geometry": {"type": "LineString", "coordinates": [[-0.9617316, 39.4654766], [-0.9610075, 39.4653618]]}}, {"type": "Feature", "properties": {}, "geometry": {"type": "LineString", "coordinates": [[-0.9643716, 39.4658467], [-0.9617316, 39.4654766]]}}, {"type": "Feature", "properties": {}, "geometry": {"type": "LineString", "coordinates": [[-0.9789268, 39.4677959], [-0.9780413, 39.4676288], [-0.976636, 39.4673891], [-0.9749522, 39.4671274], [-0.9733321, 39.4669053], [-0.9715083, 39.4666714], [-0.9643716, 39.4658467]]}}, {"type": "Feature", "properties": {}, "geometry": {"type": "LineString", "coordinates": [[-0.9790402, 39.4678173], [-0.9789268, 39.4677959]]}}, {"type": "Feature", "properties": {}, "geometry": {"type": "LineString", "coordinates": [[-1.1015032, 39.5095306], [-1.0996142, 39.5091195], [-1.0977137, 39.5087416], [-1.0958025, 39.508397], [-1.0938817, 39.5080859], [-1.0919522, 39.5078085], [-1.0900151, 39.5075649], [-1.0880713, 39.5073552], [-1.0808985, 39.5067444], [-1.0781012, 39.5064782], [-1.0770186, 39.5063545], [-1.0750178, 39.5061043], [-1.0728956, 39.5057993], [-1.0705503, 39.5054147], [-1.0684714, 39.5050442], [-1.0658979, 39.5045075], [-1.0644778, 39.5041911], [-1.0620524, 39.5036038], [-1.0595003, 39.5029305], [-1.0573148, 39.5023001], [-1.0553404, 39.5016861], [-1.0533307, 39.5010172], [-1.0508538, 39.5001474], [-1.0475048, 39.4988455], [-1.0457082, 39.498092], [-1.0438921, 39.497292], [-1.0427048, 39.4967466], [-1.0414642, 39.4961519], [-1.0402148, 39.4955352], [-1.0383459, 39.4945701], [-1.0362011, 39.4934217], [-1.0264149, 39.4880741], [-1.0079883, 39.4780098], [-1.0070274, 39.4774952], [-1.0056829, 39.4768007], [-1.0041258, 39.4760201], [-1.0024309, 39.4752152], [-1.0005172, 39.4743578], [-0.9990196, 39.4737226], [-0.9972815, 39.4730205], [-0.9955327, 39.472354], [-0.9940849, 39.471832], [-0.9928297, 39.4714011], [-0.9913761, 39.4709207], [-0.9901051, 39.4705256], [-0.9887388, 39.4701171], [-0.9868156, 39.4695818], [-0.9851534, 39.4691528], [-0.9835035, 39.4687505], [-0.9817566, 39.4683588], [-0.9801337, 39.4680236], [-0.9790402, 39.4678173]]}}, {"type": "Feature", "properties": {}, "geometry": {"type": "LineString", "coordinates": [[-1.1025895, 39.5097847], [-1.1015032, 39.5095306]]}}, {"type": "Feature", "properties": {}, "geometry": {"type": "LineString", "coordinates": [[-1.1309307, 39.520394], [-1.1276515, 39.5189882], [-1.1253444, 39.5179929], [-1.1195706, 39.5155044], [-1.1178717, 39.5147831], [-1.1161727, 39.5140873], [-1.1146545, 39.5134988], [-1.1124488, 39.5126925], [-1.1111428, 39.5122445], [-1.1099055, 39.5118383], [-1.1089011, 39.5115233], [-1.107644, 39.511142], [-1.1061388, 39.5107055], [-1.1046947, 39.5103145], [-1.1025895, 39.5097847]]}}, {"type": "Feature", "properties": {}, "geometry": {"type": "LineString", "coordinates": [[-1.1384946, 39.5236544], [-1.1378516, 39.5233265], [-1.1372379, 39.5230407], [-1.1361355, 39.5225607], [-1.1348405, 39.522011], [-1.1319105, 39.5207672], [-1.1309307, 39.520394]]}}, {"type": "Feature", "properties": {}, "geometry": {"type": "LineString", "coordinates": [[-1.1423376, 39.5253099], [-1.1384946, 39.5236544]]}}, {"type": "Feature", "properties": {}, "geometry": {"type": "LineString", "coordinates": [[-1.1432955, 39.5257225], [-1.1423376, 39.5253099]]}}, {"type": "Feature", "properties": {}, "geometry": {"type": "LineString", "coordinates": [[-1.146092, 39.5269272], [-1.1442311, 39.5261256], [-1.1432955, 39.5257225]]}}, {"type": "Feature", "properties": {}, "geometry": {"type": "LineString", "coordinates": [[-1.146246, 39.5269935], [-1.146092, 39.5269272]]}}, {"type": "Feature", "properties": {}, "geometry": {"type": "LineString", "coordinates": [[-1.1500895, 39.5286432], [-1.146246, 39.5269935]]}}, {"type": "Feature", "properties": {}, "geometry": {"type": "LineString", "coordinates": [[-1.1513529, 39.5291934], [-1.1500895, 39.5286432]]}}, {"type": "Feature", "properties": {}, "geometry": {"type": "LineString", "coordinates": [[-1.156593, 39.5314444], [-1.1513529, 39.5291934]]}}, {"type": "Feature", "properties": {}, "geometry": {"type": "LineString", "coordinates": [[-1.1572015, 39.5317071], [-1.156593, 39.5314444]]}}, {"type": "Feature", "properties": {}, "geometry": {"type": "LineString", "coordinates": [[-1.1607911, 39.5332043], [-1.1594862, 39.532675], [-1.1572015, 39.5317071]]}}, {"type": "Feature", "properties": {}, "geometry": {"type": "LineString", "coordinates": [[-1.1610127, 39.5332954], [-1.1607911, 39.5332043]]}}, {"type": "Feature", "properties": {}, "geometry": {"type": "LineString", "coordinates": [[-1.1787786, 39.5406535], [-1.1773945, 39.540085], [-1.1760348, 39.5395094], [-1.1730869, 39.538234], [-1.1698029, 39.5368365], [-1.1610127, 39.5332954]]}}, {"type": "Feature", "properties": {}, "geometry": {"type": "LineString", "coordinates": [[-1.1912563, 39.5452841], [-1.1829094, 39.5422512], [-1.1808941, 39.5414928], [-1.1787786, 39.5406535]]}}, {"type": "Feature", "properties": {}, "geometry": {"type": "LineString", "coordinates": [[-1.2058444, 39.5501348], [-1.2047516, 39.5498369], [-1.2031699, 39.5493778], [-1.2012126, 39.5487799], [-1.2002946, 39.5484861], [-1.1978021, 39.54764], [-1.1912563, 39.5452841]]}}, {"type": "Feature", "properties": {}, "geometry": {"type": "LineString", "coordinates": [[-1.2060658, 39.5501925], [-1.2058444, 39.5501348]]}}, {"type": "Feature", "properties": {}, "geometry": {"type": "LineString", "coordinates": [[-1.2718875, 39.5513033], [-1.2476125, 39.5536456], [-1.2458851, 39.5537914], [-1.2437731, 39.5539421], [-1.2417614, 39.5540458], [-1.2395529, 39.5541202], [-1.236837, 39.5541515], [-1.2351532, 39.5541489], [-1.2329071, 39.5541026], [-1.2308462, 39.5540218], [-1.228541, 39.5538909], [-1.2269481, 39.5537845], [-1.2244478, 39.5535802], [-1.2209377, 39.5531452], [-1.2190485, 39.55288], [-1.2170036, 39.5525605], [-1.2154041, 39.5522814], [-1.2137815, 39.5519779], [-1.2123437, 39.5516896], [-1.2090345, 39.5509515], [-1.2065204, 39.5503163], [-1.2060658, 39.5501925]]}}, {"type": "Feature", "properties": {}, "geometry": {"type": "LineString", "coordinates": [[-1.2730863, 39.5511937], [-1.2718875, 39.5513033]]}}, {"type": "Feature", "properties": {}, "geometry": {"type": "LineString", "coordinates": [[-1.2866922, 39.5493216], [-1.2835036, 39.5498558], [-1.2809149, 39.5502656], [-1.2793178, 39.5505013], [-1.2764012, 39.550854], [-1.2747554, 39.5510276], [-1.2730863, 39.5511937]]}}, {"type": "Feature", "properties": {}, "geometry": {"type": "LineString", "coordinates": [[-1.2869415, 39.5492805], [-1.2866922, 39.5493216]]}}, {"type": "Feature", "properties": {}, "geometry": {"type": "LineString", "coordinates": [[-1.2975976, 39.5477546], [-1.2954695, 39.5479891], [-1.2940992, 39.5481631], [-1.2921056, 39.548445], [-1.2888169, 39.5489703], [-1.2869415, 39.5492805]]}}, {"type": "Feature", "properties": {}, "geometry": {"type": "LineString", "coordinates": [[-1.2992773, 39.547601], [-1.2984413, 39.547672], [-1.2975976, 39.5477546]]}}, {"type": "Feature", "properties": {}, "geometry": {"type": "LineString", "coordinates": [[-1.3087325, 39.5471313], [-1.3040699, 39.5473023], [-1.3024911, 39.5473805], [-1.3008848, 39.5474812], [-1.2992773, 39.547601]]}}, {"type": "Feature", "properties": {}, "geometry": {"type": "LineString", "coordinates": [[-1.3089084, 39.5471253], [-1.3087325, 39.5471313]]}}, {"type": "Feature", "properties": {}, "geometry": {"type": "LineString", "coordinates": [[-1.3707139, 39.5427468], [-1.3557725, 39.544824], [-1.3530059, 39.5451828], [-1.3516391, 39.5453363], [-1.349013, 39.5455886], [-1.3471958, 39.545717], [-1.3454748, 39.5458184], [-1.3436012, 39.5459019], [-1.3293497, 39.5464062], [-1.3155699, 39.5468932], [-1.3089084, 39.5471253]]}}, {"type": "Feature", "properties": {}, "geometry": {"type": "LineString", "coordinates": [[-1.3711079, 39.5426921], [-1.3707139, 39.5427468]]}}, {"type": "Feature", "properties": {}, "geometry": {"type": "LineString", "coordinates": [[-1.3859883, 39.5413933], [-1.3845309, 39.541427], [-1.3826439, 39.5415068], [-1.3811426, 39.5415897], [-1.3798755, 39.5416782], [-1.3780612, 39.541836], [-1.3768014, 39.5419617], [-1.375453, 39.5421139], [-1.3741647, 39.5422768], [-1.373124, 39.5424118], [-1.3711079, 39.5426921]]}}, {"type": "Feature", "properties": {}, "geometry": {"type": "LineString", "coordinates": [[-1.3882572, 39.5413721], [-1.3859883, 39.5413933]]}}, {"type": "Feature", "properties": {}, "geometry": {"type": "LineString", "coordinates": [[-1.3970268, 39.541768], [-1.395985, 39.5416841], [-1.3944011, 39.5415759], [-1.3925389, 39.5414776], [-1.390185, 39.5413946], [-1.3882572, 39.5413721]]}}, {"type": "Feature", "properties": {}, "geometry": {"type": "LineString", "coordinates": [[-1.3973806, 39.5417964], [-1.3970268, 39.541768]]}}, {"type": "Feature", "properties": {}, "geometry": {"type": "LineString", "coordinates": [[-1.4074432, 39.5424558], [-1.4067871, 39.5424378], [-1.4054695, 39.5423859], [-1.4038535, 39.5422976], [-1.4023803, 39.5421989], [-1.3973806, 39.5417964]]}}, {"type": "Feature", "properties": {}, "geometry": {"type": "LineString", "coordinates": [[-1.4077687, 39.5424648], [-1.4074432, 39.5424558]]}}, {"type": "Feature", "properties": {}, "geometry": {"type": "LineString", "coordinates": [[-1.4169362, 39.5422378], [-1.4148347, 39.5423596], [-1.4134665, 39.5424221], [-1.411544, 39.5424704], [-1.4094065, 39.5424841], [-1.4077687, 39.5424648]]}}, {"type": "Feature", "properties": {}, "geometry": {"type": "LineString", "coordinates": [[-1.4527694, 39.5444183], [-1.4411081, 39.5413135], [-1.4397927, 39.5410028], [-1.4365002, 39.5406223], [-1.4331735, 39.54072], [-1.4285823, 39.5414857], [-1.4239256, 39.541961], [-1.4169362, 39.5422378]]}}, {"type": "Feature", "properties": {}, "geometry": {"type": "LineString", "coordinates": [[-1.4785794, 39.5505707], [-1.4763932, 39.5503256], [-1.4744948, 39.5500652], [-1.4731188, 39.5498421], [-1.4720653, 39.5496564], [-1.470784, 39.549415], [-1.4695168, 39.5491526], [-1.4683284, 39.5488845], [-1.466668, 39.548477], [-1.4645584, 39.5479075], [-1.4629513, 39.5474358], [-1.4597148, 39.5464016], [-1.4569718, 39.5455625], [-1.454956, 39.5449875], [-1.4527694, 39.5444183]]}}, {"type": "Feature", "properties": {}, "geometry": {"type": "LineString", "coordinates": [[-1.4933641, 39.5514731], [-1.4904, 39.5513716], [-1.4874386, 39.5512305], [-1.4844807, 39.55105], [-1.4815274, 39.55083], [-1.4785794, 39.5505707]]}}, {"type": "Feature", "properties": {}, "geometry": {"type": "LineString", "coordinates": [[-1.4963301, 39.5515351], [-1.4933641, 39.5514731]]}}, {"type": "Feature", "properties": {}, "geometry": {"type": "LineString", "coordinates": [[-1.4968368, 39.5515282], [-1.4963301, 39.5515351]]}}, {"type": "Feature", "properties": {}, "geometry": {"type": "LineString", "coordinates": [[-1.5065684, 39.5503048], [-1.505703, 39.5504914], [-1.5048325, 39.5506632], [-1.5039572, 39.55082], [-1.5030776, 39.5509617], [-1.5021942, 39.5510884], [-1.5013073, 39.5511999], [-1.5004174, 39.5512962], [-1.499525, 39.5513772], [-1.4986304, 39.5514429], [-1.4977342, 39.5514933], [-1.4968368, 39.5515282]]}}, {"type": "Feature", "properties": {}, "geometry": {"type": "LineString", "coordinates": [[-1.5076159, 39.5500487], [-1.5065684, 39.5503048]]}}, {"type": "Feature", "properties": {}, "geometry": {"type": "LineString", "coordinates": [[-1.5121561, 39.548691], [-1.5099232, 39.5494438], [-1.5076159, 39.5500487]]}}, {"type": "Feature", "properties": {}, "geometry": {"type": "LineString", "coordinates": [[-1.5126386, 39.5485191], [-1.5121561, 39.548691]]}}, {"type": "Feature", "properties": {}, "geometry": {"type": "LineString", "coordinates": [[-1.5175035, 39.5464165], [-1.5162968, 39.5469782], [-1.5151095, 39.547513], [-1.5138502, 39.548041], [-1.5126386, 39.5485191]]}}, {"type": "Feature", "properties": {}, "geometry": {"type": "LineString", "coordinates": [[-1.5186669, 39.5458256], [-1.5175035, 39.5464165]]}}, {"type": "Feature", "properties": {}, "geometry": {"type": "LineString", "coordinates": [[-1.5198178, 39.545217], [-1.5186669, 39.5458256]]}}, {"type": "Feature", "properties": {}, "geometry": {"type": "LineString", "coordinates": [[-1.5220106, 39.5438821], [-1.5208106, 39.5446418], [-1.5198178, 39.545217]]}}, {"type": "Feature", "properties": {}, "geometry": {"type": "LineString", "coordinates": [[-1.5225797, 39.5434938], [-1.5220106, 39.5438821]]}}, {"type": "Feature", "properties": {}, "geometry": {"type": "LineString", "coordinates": [[-1.5401744, 39.5314407], [-1.5380401, 39.5324877], [-1.5359789, 39.5336183], [-1.5339961, 39.5348295], [-1.5320971, 39.5361181], [-1.530287, 39.5374806], [-1.5285706, 39.5389134], [-1.5267187, 39.5405503], [-1.5247186, 39.5420801], [-1.5225797, 39.5434938]]}}, {"type": "Feature", "properties": {}, "geometry": {"type": "LineString", "coordinates": [[-1.5433231, 39.5300994], [-1.5416498, 39.530761], [-1.5401744, 39.5314407]]}}, {"type": "Feature", "properties": {}, "geometry": {"type": "LineString", "coordinates": [[-1.5486544, 39.5282508], [-1.5459617, 39.5291287], [-1.5433231, 39.5300994]]}}, {"type": "Feature", "properties": {}, "geometry": {"type": "LineString", "coordinates": [[-1.5513957, 39.5274673], [-1.5486544, 39.5282508]]}}, {"type": "Feature", "properties": {}, "geometry": {"type": "LineString", "coordinates": [[-1.5745387, 39.5202409], [-1.5563381, 39.5259262], [-1.5519154, 39.5273072], [-1.5513957, 39.5274673]]}}, {"type": "Feature", "properties": {}, "geometry": {"type": "LineString", "coordinates": [[-1.578998, 39.5188496], [-1.5745387, 39.5202409]]}}, {"type": "Feature", "properties": {}, "geometry": {"type": "LineString", "coordinates": [[-1.5834985, 39.5174411], [-1.578998, 39.5188496]]}}, {"type": "Feature", "properties": {}, "geometry": {"type": "LineString", "coordinates": [[-1.589365, 39.5156526], [-1.5834985, 39.5174411]]}}, {"type": "Feature", "properties": {}, "geometry": {"type": "LineString", "coordinates": [[-1.5926723, 39.5147922], [-1.591012, 39.5152072], [-1.589365, 39.5156526]]}}, {"type": "Feature", "properties": {}, "geometry": {"type": "LineString", "coordinates": [[-1.6039376, 39.5128714], [-1.601654, 39.5131401], [-1.5993833, 39.5134669], [-1.5971278, 39.5138515], [-1.59489, 39.5142934], [-1.5926723, 39.5147922]]}}, {"type": "Feature", "properties": {}, "geometry": {"type": "LineString", "coordinates": [[-1.610415, 39.51243], [-1.6087912, 39.5124982], [-1.6071698, 39.5125943], [-1.6055516, 39.5127183], [-1.6039376, 39.5128714]]}}, {"type": "Feature", "properties": {}, "geometry": {"type": "LineString", "coordinates": [[-1.6119907, 39.5123838], [-1.610415, 39.51243]]}}, {"type": "Feature", "properties": {}, "geometry": {"type": "LineString", "coordinates": [[-1.6146729, 39.5123321], [-1.6119907, 39.5123838]]}}, {"type": "Feature", "properties": {}, "geometry": {"type": "LineString", "coordinates": [[-1.6173136, 39.5122787], [-1.6146729, 39.5123321]]}}, {"type": "Feature", "properties": {}, "geometry": {"type": "LineString", "coordinates": [[-1.6417313, 39.5099065], [-1.6407543, 39.510099], [-1.6389151, 39.5104375], [-1.6367787, 39.5107965], [-1.634801, 39.5110903], [-1.6329806, 39.5113263], [-1.6307547, 39.5115815], [-1.6276398, 39.5118715], [-1.6265706, 39.5119402], [-1.6251715, 39.5120302], [-1.6224129, 39.5121594], [-1.6173136, 39.5122787]]}}, {"type": "Feature", "properties": {}, "geometry": {"type": "LineString", "coordinates": [[-1.6441531, 39.5093938], [-1.6417313, 39.5099065]]}}, {"type": "Feature", "properties": {}, "geometry": {"type": "LineString", "coordinates": [[-1.6451161, 39.5091791], [-1.6441531, 39.5093938]]}}, {"type": "Feature", "properties": {}, "geometry": {"type": "LineString", "coordinates": [[-1.6462283, 39.5089201], [-1.6451161, 39.5091791]]}}, {"type": "Feature", "properties": {}, "geometry": {"type": "LineString", "coordinates": [[-1.6890356, 39.5057072], [-1.6880621, 39.5055903], [-1.6865365, 39.5054243], [-1.6843518, 39.5052287], [-1.6820631, 39.5050758], [-1.6804284, 39.504996], [-1.6783928, 39.504922], [-1.6763356, 39.5048932], [-1.6750757, 39.5049006], [-1.673446, 39.5049171], [-1.6713982, 39.5049846], [-1.6699353, 39.5050525], [-1.6682991, 39.5051562], [-1.6663234, 39.5053134], [-1.6648646, 39.50545], [-1.6628341, 39.5056711], [-1.6607299, 39.5059513], [-1.659011, 39.5062053], [-1.6568796, 39.506565], [-1.6549074, 39.5069362], [-1.6528863, 39.5073584], [-1.6502954, 39.5079484], [-1.6462283, 39.5089201]]}}, {"type": "Feature", "properties": {}, "geometry": {"type": "LineString", "coordinates": [[-1.6922764, 39.5061508], [-1.6906592, 39.5059151], [-1.6890356, 39.5057072]]}}, {"type": "Feature", "properties": {}, "geometry": {"type": "LineString", "coordinates": [[-1.7197121, 39.5124606], [-1.717086, 39.511923], [-1.7144205, 39.511312], [-1.705473, 39.5090088], [-1.7030108, 39.5083746], [-1.7000522, 39.5076522], [-1.6986866, 39.5073453], [-1.6969972, 39.5069889], [-1.6946879, 39.5065567], [-1.6935627, 39.5063604], [-1.6922764, 39.5061508]]}}, {"type": "Feature", "properties": {}, "geometry": {"type": "LineString", "coordinates": [[-1.721273, 39.5127574], [-1.7197121, 39.5124606]]}}, {"type": "Feature", "properties": {}, "geometry": {"type": "LineString", "coordinates": [[-1.768873, 39.5174011], [-1.7659981, 39.516859], [-1.7639362, 39.5165224], [-1.7620468, 39.5162413], [-1.7600537, 39.5159843], [-1.7581719, 39.5157605], [-1.756646, 39.5156093], [-1.7550378, 39.5154678], [-1.7529239, 39.5153123], [-1.749797, 39.5151542], [-1.7358184, 39.5144534], [-1.7327526, 39.51425], [-1.7313934, 39.5141312], [-1.7300069, 39.5139895], [-1.7278763, 39.5137548], [-1.7261388, 39.5135341], [-1.7247405, 39.5133313], [-1.7229309, 39.5130457], [-1.721273, 39.5127574]]}}, {"type": "Feature", "properties": {}, "geometry": {"type": "LineString", "coordinates": [[-1.7744479, 39.5186376], [-1.771667, 39.5180017], [-1.768873, 39.5174011]]}}, {"type": "Feature", "properties": {}, "geometry": {"type": "LineString", "coordinates": [[-1.8486945, 39.5274391], [-1.8471592, 39.5273969], [-1.8443761, 39.5272622], [-1.8420762, 39.5271002], [-1.840026, 39.5269105], [-1.8203999, 39.5248129], [-1.8123018, 39.5239474], [-1.8042693, 39.5230785], [-1.7970295, 39.5223058], [-1.7942326, 39.5220073], [-1.7892697, 39.521446], [-1.7872763, 39.521173], [-1.785715, 39.5209374], [-1.7831568, 39.5205099], [-1.7806422, 39.5200223], [-1.777913, 39.5194386], [-1.7744479, 39.5186376]]}}, {"type": "Feature", "properties": {}, "geometry": {"type": "LineString", "coordinates": [[-1.8511103, 39.5274615], [-1.8486945, 39.5274391]]}}, {"type": "Feature", "properties": {}, "geometry": {"type": "LineString", "coordinates": [[-1.8994625, 39.5299337], [-1.8965549, 39.5292162], [-1.8954352, 39.5289681], [-1.8936892, 39.5285945], [-1.8920828, 39.5282865], [-1.8900654, 39.527931], [-1.8887714, 39.5277246], [-1.8872103, 39.5275002], [-1.8848728, 39.5272043], [-1.8833608, 39.52703], [-1.8814712, 39.5268644], [-1.8800247, 39.5267553], [-1.8785404, 39.5266532], [-1.8769941, 39.5265814], [-1.8755615, 39.5265288], [-1.8739343, 39.5264825], [-1.8721886, 39.5264802], [-1.8704504, 39.5264972], [-1.8683031, 39.526556], [-1.8669073, 39.5266188], [-1.8655625, 39.5266956], [-1.8580122, 39.5272288], [-1.8561908, 39.5273318], [-1.8545823, 39.5273984], [-1.852945, 39.5274443], [-1.8511103, 39.5274615]]}}, {"type": "Feature", "properties": {}, "geometry": {"type": "LineString", "coordinates": [[-1.9009675, 39.5303437], [-1.8994625, 39.5299337]]}}, {"type": "Feature", "properties": {}, "geometry": {"type": "LineString", "coordinates": [[-1.9079096, 39.5325485], [-1.9062001, 39.5319497], [-1.9044725, 39.5313824], [-1.902728, 39.530847], [-1.9009675, 39.5303437]]}}, {"type": "Feature", "properties": {}, "geometry": {"type": "LineString", "coordinates": [[-1.9097041, 39.5332195], [-1.9079096, 39.5325485]]}}, {"type": "Feature", "properties": {}, "geometry": {"type": "LineString", "coordinates": [[-1.9178887, 39.5367865], [-1.9158953, 39.5358244], [-1.9138656, 39.5349086], [-1.9118012, 39.5340401], [-1.9097041, 39.5332195]]}}, {"type": "Feature", "properties": {}, "geometry": {"type": "LineString", "coordinates": [[-1.9195308, 39.5376306], [-1.9178887, 39.5367865]]}}, {"type": "Feature", "properties": {}, "geometry": {"type": "LineString", "coordinates": [[-1.9575915, 39.6091524], [-1.9577362, 39.6056091], [-1.958062, 39.5964041], [-1.9580724, 39.5941398], [-1.9580582, 39.5933698], [-1.9580017, 39.5921552], [-1.9578971, 39.5905769], [-1.9577095, 39.5885944], [-1.957585, 39.5876055], [-1.9573109, 39.5858781], [-1.9569316, 39.5838697], [-1.9566363, 39.5824788], [-1.9560557, 39.5802173], [-1.9553473, 39.5778251], [-1.9547751, 39.5761342], [-1.9540275, 39.5741518], [-1.9534028, 39.5726465], [-1.9526724, 39.5710243], [-1.951977, 39.5695706], [-1.9512754, 39.5682012], [-1.9506321, 39.567004], [-1.950084, 39.5660319], [-1.9494693, 39.564994], [-1.9489947, 39.5642115], [-1.9483001, 39.5631162], [-1.9472757, 39.5615914], [-1.9463153, 39.5602348], [-1.9453377, 39.5589159], [-1.9444404, 39.5577543], [-1.9435844, 39.5566987], [-1.9425189, 39.555445], [-1.9416495, 39.5544682], [-1.9399558, 39.5526535], [-1.9385833, 39.5512748], [-1.93681, 39.549602], [-1.935689, 39.548591], [-1.9342744, 39.5473908], [-1.9329995, 39.5463421], [-1.9320089, 39.5455565], [-1.9297826, 39.5439089], [-1.9276107, 39.5424046], [-1.9256892, 39.5411583], [-1.924607, 39.5404871], [-1.9235652, 39.5398699], [-1.9218258, 39.5388644], [-1.9206655, 39.5382262], [-1.9195308, 39.5376306]]}}, {"type": "Feature", "properties": {}, "geometry": {"type": "LineString", "coordinates": [[-1.9568846, 39.6186402], [-1.957189, 39.6162975], [-1.9573406, 39.6145771], [-1.9574476, 39.6129676], [-1.9575915, 39.6091524]]}}, {"type": "Feature", "properties": {}, "geometry": {"type": "LineString", "coordinates": [[-1.9563668, 39.6215018], [-1.9568846, 39.6186402]]}}, {"type": "Feature", "properties": {}, "geometry": {"type": "LineString", "coordinates": [[-1.9322831, 39.7168137], [-1.932227, 39.7159551], [-1.9321848, 39.7149675], [-1.9321487, 39.7135509], [-1.9321524, 39.7126037], [-1.9321924, 39.7111304], [-1.932259, 39.7098883], [-1.9323583, 39.7085035], [-1.9325262, 39.7066981], [-1.9327301, 39.705182], [-1.9329774, 39.7036575], [-1.9332709, 39.7020464], [-1.9336418, 39.7003587], [-1.9338916, 39.6993241], [-1.9343863, 39.6975538], [-1.9348329, 39.6960599], [-1.935242, 39.6948212], [-1.9355905, 39.6938008], [-1.9364079, 39.6916273], [-1.9371367, 39.689938], [-1.9381327, 39.6877843], [-1.9401702, 39.6833781], [-1.9409691, 39.6814448], [-1.941674, 39.6795723], [-1.9422177, 39.6779664], [-1.9427205, 39.6763189], [-1.9432728, 39.6743324], [-1.9435703, 39.6731146], [-1.9441344, 39.6705406], [-1.9472514, 39.6555707], [-1.9496833, 39.6437839], [-1.9501041, 39.6418994], [-1.9505561, 39.6401034], [-1.9509859, 39.6385421], [-1.9519169, 39.6355529], [-1.9526166, 39.6335341], [-1.9532345, 39.6317514], [-1.9538602, 39.6299863], [-1.9547819, 39.6273262], [-1.9556055, 39.6246299], [-1.9560009, 39.6230695], [-1.9563668, 39.6215018]]}}, {"type": "Feature", "properties": {}, "geometry": {"type": "LineString", "coordinates": [[-1.9322945, 39.7169316], [-1.9322831, 39.7168137]]}}, {"type": "Feature", "properties": {}, "geometry": {"type": "LineString", "coordinates": [[-1.9339341, 39.7271674], [-1.9334934, 39.7253321], [-1.9332181, 39.7240178], [-1.9328989, 39.7222443], [-1.9326985, 39.7209282], [-1.9325262, 39.7195994], [-1.9324215, 39.7186], [-1.9323465, 39.7177405], [-1.9322945, 39.7169316]]}}, {"type": "Feature", "properties": {}, "geometry": {"type": "LineString", "coordinates": [[-1.9357146, 39.7328634], [-1.9350578, 39.7309767], [-1.9344641, 39.7290776], [-1.9339341, 39.7271674]]}}, {"type": "Feature", "properties": {}, "geometry": {"type": "LineString", "coordinates": [[-1.9678037, 39.7717329], [-1.9661383, 39.7702135], [-1.954248, 39.7597273], [-1.9528145, 39.7583986], [-1.9516028, 39.7571956], [-1.950082, 39.7556434], [-1.948449, 39.7538498], [-1.9475734, 39.7528404], [-1.9461536, 39.7511212], [-1.9448789, 39.7495008], [-1.9437067, 39.7478992], [-1.9426164, 39.746316], [-1.9418161, 39.7451081], [-1.9410704, 39.7439171], [-1.9401142, 39.7422981], [-1.939208, 39.7406638], [-1.9384432, 39.7391449], [-1.9377646, 39.7377575], [-1.9371042, 39.7363181], [-1.9362005, 39.7341381], [-1.9357146, 39.7328634]]}}, {"type": "Feature", "properties": {}, "geometry": {"type": "LineString", "coordinates": [[-1.9754687, 39.7797047], [-1.9729764, 39.7768446], [-1.9703041, 39.7740821], [-1.9678037, 39.7717329]]}}, {"type": "Feature", "properties": {}, "geometry": {"type": "LineString", "coordinates": [[-2.0199711, 39.8626095], [-2.0197349, 39.861251], [-2.0195176, 39.8601813], [-2.0193087, 39.8592397], [-2.0189416, 39.8576929], [-2.0185908, 39.8564039], [-2.0181383, 39.854868], [-2.017699, 39.853491], [-2.017166, 39.8519811], [-2.0168462, 39.8511287], [-2.0162836, 39.8497181], [-2.0153798, 39.847642], [-2.0145239, 39.845863], [-2.0139568, 39.8447487], [-2.013146, 39.8432368], [-2.0022791, 39.8239283], [-1.9939358, 39.8090979], [-1.9904994, 39.8029886], [-1.9853088, 39.7937599], [-1.9843841, 39.7921536], [-1.9829967, 39.7898924], [-1.9819289, 39.7882202], [-1.9803581, 39.785954], [-1.9791403, 39.7842775], [-1.9784439, 39.783368], [-1.9770942, 39.7816595], [-1.9754687, 39.7797047]]}}, {"type": "Feature", "properties": {}, "geometry": {"type": "LineString", "coordinates": [[-2.020501, 39.8762599], [-2.0208339, 39.871704], [-2.0206568, 39.8671427], [-2.0199711, 39.8626095]]}}, {"type": "Feature", "properties": {}, "geometry": {"type": "LineString", "coordinates": [[-2.0203271, 39.8783693], [-2.020501, 39.8762599]]}}, {"type": "Feature", "properties": {}, "geometry": {"type": "LineString", "coordinates": [[-2.0198695, 39.8839122], [-2.0199219, 39.8825239], [-2.0200157, 39.8811368], [-2.0201507, 39.8797517], [-2.0203271, 39.8783693]]}}, {"type": "Feature", "properties": {}, "geometry": {"type": "LineString", "coordinates": [[-2.0277978, 39.9153575], [-2.0273557, 39.9145846], [-2.0262944, 39.9125726], [-2.0253789, 39.9107053], [-2.024613, 39.908991], [-2.023834, 39.9071459], [-2.0229486, 39.9047106], [-2.0221393, 39.9021908], [-2.0214844, 39.8997468], [-2.021064, 39.8978616], [-2.0207682, 39.8964729], [-2.0204376, 39.8944779], [-2.0202586, 39.8932009], [-2.0200734, 39.8914393], [-2.0199287, 39.8896736], [-2.0198537, 39.8879884], [-2.0198193, 39.8864933], [-2.0198695, 39.8839122]]}}, {"type": "Feature", "properties": {}, "geometry": {"type": "LineString", "coordinates": [[-2.0349215, 39.9265702], [-2.0277978, 39.9153575]]}}, {"type": "Feature", "properties": {}, "geometry": {"type": "LineString", "coordinates": [[-2.0352403, 39.9270715], [-2.0349215, 39.9265702]]}}, {"type": "Feature", "properties": {}, "geometry": {"type": "LineString", "coordinates": [[-2.0366899, 39.9298685], [-2.0363854, 39.9291523], [-2.0360418, 39.9284466], [-2.0356599, 39.9277526], [-2.0352403, 39.9270715]]}}, {"type": "Feature", "properties": {}, "geometry": {"type": "LineString", "coordinates": [[-2.0540687, 39.965971], [-2.0529352, 39.9643186], [-2.0521937, 39.9631605], [-2.0516042, 39.9622242], [-2.0510853, 39.9613722], [-2.0505737, 39.9604807], [-2.0460527, 39.9522442], [-2.04512, 39.9505399], [-2.0442515, 39.9488961], [-2.0431737, 39.9467183], [-2.0422623, 39.9446093], [-2.041566, 39.9428425], [-2.04091, 39.9409884], [-2.0394304, 39.9365216], [-2.0389308, 39.9351035], [-2.0386348, 39.9343325], [-2.0380692, 39.9329201], [-2.0375414, 39.9316996], [-2.0366899, 39.9298685]]}}, {"type": "Feature", "properties": {}, "geometry": {"type": "LineString", "coordinates": [[-2.0561485, 39.9687496], [-2.0540687, 39.965971]]}}, {"type": "Feature", "properties": {}, "geometry": {"type": "LineString", "coordinates": [[-2.1070162, 40.0126074], [-2.1040407, 40.0112019], [-2.1027271, 40.0105478], [-2.1005633, 40.0094259], [-2.0996366, 40.0089079], [-2.097826, 40.0078781], [-2.0967548, 40.0072311], [-2.0955307, 40.0064556], [-2.0924045, 40.0043684], [-2.0903321, 40.0028772], [-2.089233, 40.0020298], [-2.0878877, 40.0009608], [-2.0866741, 39.9999629], [-2.0855411, 39.9989712], [-2.0837183, 39.997302], [-2.0814939, 39.9951131], [-2.0611387, 39.9745162], [-2.0589541, 39.9721561], [-2.0572409, 39.9701648], [-2.0561485, 39.9687496]]}}, {"type": "Feature", "properties": {}, "geometry": {"type": "LineString", "coordinates": [[-2.1090783, 40.0135272], [-2.1070162, 40.0126074]]}}, {"type": "Feature", "properties": {}, "geometry": {"type": "LineString", "coordinates": [[-2.1391962, 40.0307701], [-2.1343333, 40.0273343], [-2.1314787, 40.0253073], [-2.1297799, 40.0241515], [-2.1279294, 40.022953], [-2.1261942, 40.0218935], [-2.1251286, 40.0212629], [-2.1232577, 40.0202156], [-2.1219774, 40.0195279], [-2.1205766, 40.0188055], [-2.1194038, 40.0182256], [-2.118284, 40.0176864], [-2.1161442, 40.0167], [-2.1122668, 40.0149582], [-2.1090783, 40.0135272]]}}, {"type": "Feature", "properties": {}, "geometry": {"type": "LineString", "coordinates": [[-2.1391962, 40.0307701], [-2.1397026, 40.0310812], [-2.140341, 40.0314909]]}}, {"type": "Feature", "properties": {}, "geometry": {"type": "LineString", "coordinates": [[-2.140341, 40.0314909], [-2.1406065, 40.0317076], [-2.1408291, 40.0318555], [-2.1410974, 40.032028], [-2.1415284, 40.0323266], [-2.1418951, 40.0325886], [-2.1437597, 40.0338982], [-2.1451065, 40.0348397], [-2.1453728, 40.0350448], [-2.1457429, 40.0353303], [-2.1461936, 40.0356322]]}}, {"type": "Feature", "properties": {}, "geometry": {"type": "LineString", "coordinates": [[-2.1461936, 40.0356322], [-2.1467166, 40.0360367], [-2.1471602, 40.0364035]]}}, {"type": "Feature", "properties": {}, "geometry": {"type": "LineString", "coordinates": [[-2.1525667, 40.0402297], [-2.1519576, 40.0397892], [-2.1509135, 40.0390486], [-2.1497414, 40.0382204], [-2.1487354, 40.0375095], [-2.1473823, 40.0365574], [-2.1471602, 40.0364035]]}}, {"type": "Feature", "properties": {}, "geometry": {"type": "LineString", "coordinates": [[-2.1826235, 40.0559948], [-2.1818898, 40.055739], [-2.1723723, 40.0520056], [-2.1710711, 40.0514979], [-2.1698446, 40.0508908], [-2.1687058, 40.0501908], [-2.1589158, 40.0443786], [-2.1577929, 40.0437122], [-2.1566952, 40.0430217], [-2.1556236, 40.0423075], [-2.1545789, 40.0415703], [-2.1525667, 40.0402297]]}}, {"type": "Feature", "properties": {}, "geometry": {"type": "LineString", "coordinates": [[-2.1923231, 40.0585273], [-2.1903467, 40.0580932], [-2.1883851, 40.0576212], [-2.1864396, 40.0571116], [-2.1845115, 40.0565647], [-2.1826235, 40.0559948]]}}, {"type": "Feature", "properties": {}, "geometry": {"type": "LineString", "coordinates": [[-2.1989728, 40.0597272], [-2.1967403, 40.0593802], [-2.1945225, 40.0589816], [-2.1923231, 40.0585273]]}}, {"type": "Feature", "properties": {}, "geometry": {"type": "LineString", "coordinates": [[-2.2146925, 40.0609013], [-2.2124331, 40.0608737], [-2.2101756, 40.0607991], [-2.2079215, 40.0606776], [-2.2056726, 40.0605093], [-2.2034305, 40.0602944], [-2.2011969, 40.0600329], [-2.1989728, 40.0597272]]}}, {"type": "Feature", "properties": {}, "geometry": {"type": "LineString", "coordinates": [[-2.2184209, 40.0608524], [-2.216557, 40.0608907], [-2.2146925, 40.0609013]]}}, {"type": "Feature", "properties": {}, "geometry": {"type": "LineString", "coordinates": [[-2.2511416, 40.0546834], [-2.2500777, 40.0550602], [-2.2491765, 40.055371], [-2.2475804, 40.0558955], [-2.245959, 40.0564024], [-2.24406, 40.0569582], [-2.2419639, 40.0575186], [-2.2399326, 40.0580187], [-2.237856, 40.0584926], [-2.2360973, 40.0588403], [-2.2339783, 40.0592365], [-2.2322234, 40.0595401], [-2.2293896, 40.0599464], [-2.2270855, 40.0602235], [-2.2244463, 40.0604825], [-2.2221648, 40.0606574], [-2.2207873, 40.0607393], [-2.2190953, 40.060828], [-2.2184209, 40.0608524]]}}, {"type": "Feature", "properties": {}, "geometry": {"type": "LineString", "coordinates": [[-2.2564102, 40.0525951], [-2.2549614, 40.0532133], [-2.2535463, 40.0537748], [-2.2520524, 40.0543484], [-2.2511416, 40.0546834]]}}, {"type": "Feature", "properties": {}, "geometry": {"type": "LineString", "coordinates": [[-2.2703953, 40.0454672], [-2.2686513, 40.0463687], [-2.2663504, 40.0476248], [-2.2647594, 40.0485031], [-2.2629548, 40.049464], [-2.2614763, 40.0502304], [-2.2604053, 40.0507647], [-2.2591925, 40.0513416], [-2.2575867, 40.0520758], [-2.2564102, 40.0525951]]}}, {"type": "Feature", "properties": {}, "geometry": {"type": "LineString", "coordinates": [[-2.2938969, 40.0369832], [-2.2903091, 40.0377732], [-2.2867816, 40.038709], [-2.2833246, 40.039788], [-2.2799479, 40.041007], [-2.2766612, 40.0423625], [-2.273474, 40.0438506], [-2.2703953, 40.0454672]]}}, {"type": "Feature", "properties": {}, "geometry": {"type": "LineString", "coordinates": [[-2.2987199, 40.0360607], [-2.2964411, 40.0364666], [-2.2938969, 40.0369832]]}}, {"type": "Feature", "properties": {}, "geometry": {"type": "LineString", "coordinates": [[-2.2995715, 40.0359156], [-2.2987199, 40.0360607]]}}, {"type": "Feature", "properties": {}, "geometry": {"type": "LineString", "coordinates": [[-2.3101684, 40.0347445], [-2.3081428, 40.0348834], [-2.3061531, 40.0350598], [-2.3041249, 40.0352813], [-2.3023976, 40.0354957], [-2.3010904, 40.0356794], [-2.2995715, 40.0359156]]}}, {"type": "Feature", "properties": {}, "geometry": {"type": "LineString", "coordinates": [[-2.3155583, 40.0345612], [-2.3142088, 40.0345646], [-2.31286, 40.0345963], [-2.3115129, 40.0346563], [-2.3101684, 40.0347445]]}}, {"type": "Feature", "properties": {}, "geometry": {"type": "LineString", "coordinates": [[-2.3402699, 40.0372596], [-2.338198, 40.0367947], [-2.33644, 40.0364439], [-2.3347629, 40.0361376], [-2.33239, 40.0357565], [-2.3309796, 40.0355432], [-2.3291767, 40.0353129], [-2.3280739, 40.035187], [-2.3262075, 40.0349987], [-2.3245993, 40.0348668], [-2.3224476, 40.0347203], [-2.320489, 40.0346251], [-2.3180899, 40.0345661], [-2.3155583, 40.0345612]]}}, {"type": "Feature", "properties": {}, "geometry": {"type": "LineString", "coordinates": [[-2.3607713, 40.0442942], [-2.3575121, 40.0428702], [-2.354183, 40.0415443], [-2.350789, 40.0403185], [-2.3473354, 40.0391946], [-2.3438272, 40.0381745], [-2.3402699, 40.0372596]]}}, {"type": "Feature", "properties": {}, "geometry": {"type": "LineString", "coordinates": [[-2.3667983, 40.0463485], [-2.3652721, 40.0458708], [-2.3637598, 40.0453678], [-2.3622621, 40.0448397], [-2.3607713, 40.0442942]]}}, {"type": "Feature", "properties": {}, "geometry": {"type": "LineString", "coordinates": [[-2.3699217, 40.0472475], [-2.3667983, 40.0463485]]}}, {"type": "Feature", "properties": {}, "geometry": {"type": "LineString", "coordinates": [[-2.3825581, 40.0497003], [-2.380118, 40.0493604], [-2.3781695, 40.0490515], [-2.3763366, 40.0487115], [-2.3752043, 40.0484815], [-2.3735346, 40.0481278], [-2.3716401, 40.0476839], [-2.3699217, 40.0472475]]}}, {"type": "Feature", "properties": {}, "geometry": {"type": "LineString", "coordinates": [[-2.3903439, 40.0504603], [-2.3860077, 40.0500796], [-2.3844496, 40.0499186], [-2.3825581, 40.0497003]]}}, {"type": "Feature", "properties": {}, "geometry": {"type": "LineString", "coordinates": [[-2.3912459, 40.0505439], [-2.3903439, 40.0504603]]}}, {"type": "Feature", "properties": {}, "geometry": {"type": "LineString", "coordinates": [[-2.3924481, 40.0506552], [-2.3912459, 40.0505439]]}}, {"type": "Feature", "properties": {}, "geometry": {"type": "LineString", "coordinates": [[-2.3954035, 40.0509613], [-2.3924481, 40.0506552]]}}, {"type": "Feature", "properties": {}, "geometry": {"type": "LineString", "coordinates": [[-2.3987502, 40.0513341], [-2.3954035, 40.0509613]]}}, {"type": "Feature", "properties": {}, "geometry": {"type": "LineString", "coordinates": [[-2.399385, 40.0514127], [-2.3987502, 40.0513341]]}}, {"type": "Feature", "properties": {}, "geometry": {"type": "LineString", "coordinates": [[-2.4017158, 40.0516965], [-2.399385, 40.0514127]]}}, {"type": "Feature", "properties": {}, "geometry": {"type": "LineString", "coordinates": [[-2.4018828, 40.0517151], [-2.4017158, 40.0516965]]}}, {"type": "Feature", "properties": {}, "geometry": {"type": "LineString", "coordinates": [[-2.4039517, 40.0519968], [-2.4018828, 40.0517151]]}}, {"type": "Feature", "properties": {}, "geometry": {"type": "LineString", "coordinates": [[-2.4130092, 40.0533569], [-2.4088622, 40.0526931], [-2.4039517, 40.0519968]]}}, {"type": "Feature", "properties": {}, "geometry": {"type": "LineString", "coordinates": [[-2.4251706, 40.0554239], [-2.4226228, 40.0550293], [-2.4130092, 40.0533569]]}}, {"type": "Feature", "properties": {}, "geometry": {"type": "LineString", "coordinates": [[-2.4826294, 40.0522288], [-2.4811261, 40.0524289], [-2.4800932, 40.0525769], [-2.4750187, 40.0532955], [-2.4719794, 40.0537136], [-2.4644046, 40.0548012], [-2.458487, 40.0556256], [-2.4555167, 40.055981], [-2.4541512, 40.0561193], [-2.45246, 40.0562712], [-2.4495753, 40.0564663], [-2.4471898, 40.0565885], [-2.445265, 40.0566385], [-2.4430226, 40.0566707], [-2.4405802, 40.0566517], [-2.438004, 40.0565955], [-2.4355822, 40.0564742], [-2.4330529, 40.0563005], [-2.4321436, 40.0562245], [-2.4307019, 40.0560929], [-2.4290407, 40.0559253], [-2.4273576, 40.0557198], [-2.4251706, 40.0554239]]}}, {"type": "Feature", "properties": {}, "geometry": {"type": "LineString", "coordinates": [[-2.4858065, 40.0517787], [-2.4826294, 40.0522288]]}}, {"type": "Feature", "properties": {}, "geometry": {"type": "LineString", "coordinates": [[-2.4974942, 40.0501248], [-2.4939716, 40.0506227], [-2.4858065, 40.0517787]]}}, {"type": "Feature", "properties": {}, "geometry": {"type": "LineString", "coordinates": [[-2.4991511, 40.0499001], [-2.4974942, 40.0501248]]}}, {"type": "Feature", "properties": {}, "geometry": {"type": "LineString", "coordinates": [[-2.5086356, 40.0488108], [-2.5044601, 40.0492429], [-2.5005767, 40.0497105], [-2.4991511, 40.0499001]]}}, {"type": "Feature", "properties": {}, "geometry": {"type": "LineString", "coordinates": [[-2.5092269, 40.0487549], [-2.5086356, 40.0488108]]}}, {"type": "Feature", "properties": {}, "geometry": {"type": "LineString", "coordinates": [[-2.512358, 40.0484827], [-2.5092269, 40.0487549]]}}, {"type": "Feature", "properties": {}, "geometry": {"type": "LineString", "coordinates": [[-2.5583625, 40.045356], [-2.5536832, 40.0462306], [-2.5489427, 40.0468843], [-2.5441589, 40.0473146], [-2.5393496, 40.047528], [-2.5328934, 40.0475546], [-2.5264403, 40.0477075], [-2.5199944, 40.0479866], [-2.512358, 40.0484827]]}}, {"type": "Feature", "properties": {}, "geometry": {"type": "LineString", "coordinates": [[-2.5667518, 40.043286], [-2.5646316, 40.0438876], [-2.5612789, 40.0447251], [-2.5593665, 40.0451604], [-2.5583625, 40.045356]]}}, {"type": "Feature", "properties": {}, "geometry": {"type": "LineString", "coordinates": [[-2.5822648, 40.0373008], [-2.5800091, 40.0383499], [-2.5774669, 40.0394601], [-2.5740114, 40.040852], [-2.5728046, 40.0413013], [-2.570115, 40.0422274], [-2.5667518, 40.043286]]}}, {"type": "Feature", "properties": {}, "geometry": {"type": "LineString", "coordinates": [[-2.6504402, 40.0208695], [-2.6487488, 40.0208243], [-2.6462504, 40.0207896], [-2.6432783, 40.0208273], [-2.6418341, 40.0208733], [-2.6399441, 40.0209641], [-2.6385318, 40.0210468], [-2.637065, 40.0211612], [-2.6347347, 40.021374], [-2.6333495, 40.0215322], [-2.6307077, 40.0218724], [-2.6281135, 40.0222682], [-2.6257852, 40.0226765], [-2.6242831, 40.0229787], [-2.622082, 40.0234462], [-2.6197457, 40.0240088], [-2.6176253, 40.0245556], [-2.6156788, 40.0251198], [-2.6145769, 40.0254323], [-2.6017156, 40.0293032], [-2.6004898, 40.0296796], [-2.5987207, 40.0302564], [-2.5960307, 40.0311867], [-2.5940663, 40.0319284], [-2.5924529, 40.0325712], [-2.5914255, 40.033002], [-2.5899625, 40.0336299], [-2.5877215, 40.0346594], [-2.5822648, 40.0373008]]}}, {"type": "Feature", "properties": {}, "geometry": {"type": "LineString", "coordinates": [[-2.6512036, 40.0208992], [-2.6504402, 40.0208695]]}}, {"type": "Feature", "properties": {}, "geometry": {"type": "LineString", "coordinates": [[-2.6807307, 40.0234836], [-2.6776116, 40.0233622], [-2.6750785, 40.0232297], [-2.673245, 40.023103], [-2.6709834, 40.0229293], [-2.6689217, 40.0227277], [-2.6661636, 40.0224311], [-2.6599311, 40.0216595], [-2.6573485, 40.0213678], [-2.6548169, 40.0211366], [-2.6520968, 40.0209537], [-2.6512036, 40.0208992]]}}, {"type": "Feature", "properties": {}, "geometry": {"type": "LineString", "coordinates": [[-2.6818156, 40.0235181], [-2.6807307, 40.0234836]]}}, {"type": "Feature", "properties": {}, "geometry": {"type": "LineString", "coordinates": [[-2.7216809, 40.0282508], [-2.717752, 40.0276835], [-2.7053088, 40.0258873], [-2.6976713, 40.0247902], [-2.6957438, 40.0245482], [-2.6927762, 40.0242234], [-2.6900696, 40.0239817], [-2.6863309, 40.0237227], [-2.6818156, 40.0235181]]}}, {"type": "Feature", "properties": {}, "geometry": {"type": "LineString", "coordinates": [[-2.7218127, 40.0282723], [-2.7216809, 40.0282508]]}}, {"type": "Feature", "properties": {}, "geometry": {"type": "LineString", "coordinates": [[-2.7402987, 40.0308666], [-2.7380659, 40.0305944], [-2.7286986, 40.0292608], [-2.7218127, 40.0282723]]}}, {"type": "Feature", "properties": {}, "geometry": {"type": "LineString", "coordinates": [[-2.7418165, 40.0310276], [-2.7402987, 40.0308666]]}}, {"type": "Feature", "properties": {}, "geometry": {"type": "LineString", "coordinates": [[-2.7532646, 40.0315909], [-2.7500273, 40.0315505], [-2.7472739, 40.031439], [-2.7453764, 40.0313318], [-2.7435887, 40.0311953], [-2.7418165, 40.0310276]]}}, {"type": "Feature", "properties": {}, "geometry": {"type": "LineString", "coordinates": [[-2.7552865, 40.0315786], [-2.7532646, 40.0315909]]}}, {"type": "Feature", "properties": {}, "geometry": {"type": "LineString", "coordinates": [[-2.8625442, 40.0137903], [-2.8450973, 40.0183827], [-2.8374175, 40.0204034], [-2.8296804, 40.0222833], [-2.8260635, 40.0230047], [-2.8224874, 40.0235943], [-2.8144463, 40.0246629], [-2.7867636, 40.0282129], [-2.7787686, 40.0292396], [-2.7720786, 40.0300865], [-2.7661415, 40.0308282], [-2.7598054, 40.0313962], [-2.7552865, 40.0315786]]}}, {"type": "Feature", "properties": {}, "geometry": {"type": "LineString", "coordinates": [[-2.8714304, 40.0118203], [-2.8625442, 40.0137903]]}}, {"type": "Feature", "properties": {}, "geometry": {"type": "LineString", "coordinates": [[-2.9855933, 39.9800522], [-2.9824921, 39.9809068], [-2.980213, 39.9815368], [-2.977263, 39.9823596], [-2.9751803, 39.9829916], [-2.973489, 39.9835319], [-2.9718365, 39.984102], [-2.9704231, 39.9846012], [-2.9687468, 39.9852377], [-2.9669748, 39.9859589], [-2.9656869, 39.9865198], [-2.9635384, 39.9874585], [-2.9606656, 39.9888298], [-2.9549048, 39.9919953], [-2.9431611, 39.9989745], [-2.9411973, 39.9999634], [-2.9390035, 40.0010039], [-2.9364226, 40.002135], [-2.9339757, 40.0031242], [-2.9323235, 40.0037516], [-2.9309731, 40.0042341], [-2.928231, 40.0051523], [-2.9262338, 40.005764], [-2.9235481, 40.006522], [-2.9221874, 40.0068784], [-2.9208925, 40.007197], [-2.9191215, 40.007615], [-2.9176164, 40.0079275], [-2.9150542, 40.0084198], [-2.912959, 40.0087777], [-2.9112647, 40.0090337], [-2.9082284, 40.0094201], [-2.9061052, 40.0096456], [-2.9045512, 40.009782], [-2.9026388, 40.0099217], [-2.9003091, 40.0100457], [-2.8985198, 40.010108], [-2.8964826, 40.0101439], [-2.8950443, 40.0101522], [-2.8890498, 40.0101784], [-2.8864022, 40.0102388], [-2.8844364, 40.0103323], [-2.882524, 40.0104514], [-2.8808904, 40.0105848], [-2.8791095, 40.0107586], [-2.877857, 40.0108996], [-2.8766513, 40.0110393], [-2.8752284, 40.0112297], [-2.8735601, 40.0114797], [-2.8714304, 40.0118203]]}}, {"type": "Feature", "properties": {}, "geometry": {"type": "LineString", "coordinates": [[-2.9857109, 39.9800183], [-2.9855933, 39.9800522]]}}, {"type": "Feature", "properties": {}, "geometry": {"type": "LineString", "coordinates": [[-2.9892141, 39.9790292], [-2.9857109, 39.9800183]]}}, {"type": "Feature", "properties": {}, "geometry": {"type": "LineString", "coordinates": [[-2.9905624, 39.978664], [-2.9892141, 39.9790292]]}}, {"type": "Feature", "properties": {}, "geometry": {"type": "LineString", "coordinates": [[-3.151066, 39.9773485], [-3.1490001, 39.9779515], [-3.1463943, 39.9786391], [-3.1438597, 39.9792464], [-3.1414013, 39.9797614], [-3.1395635, 39.9801167], [-3.1375113, 39.9804616], [-3.1352546, 39.9808059], [-3.1331479, 39.9810715], [-3.1315582, 39.9812432], [-3.129332, 39.9814539], [-3.1271029, 39.9816325], [-3.12155, 39.9820185], [-3.1187829, 39.982189], [-3.1162729, 39.982315], [-3.1142559, 39.9823654], [-3.1118773, 39.9823745], [-3.1095739, 39.9823345], [-3.1076974, 39.982275], [-3.1054264, 39.9821513], [-3.1027609, 39.981959], [-3.0995935, 39.9816247], [-3.0966591, 39.9812355], [-3.0939041, 39.980805], [-3.0920492, 39.9804733], [-3.0901808, 39.9800998], [-3.0875034, 39.9794999], [-3.0849515, 39.9788587], [-3.0825192, 39.9781855], [-3.0801048, 39.9774482], [-3.0768596, 39.9763811], [-3.0733198, 39.9751512], [-3.0712401, 39.974455], [-3.0692619, 39.9738184], [-3.0676722, 39.9733559], [-3.0652279, 39.9726643], [-3.0626222, 39.9720231], [-3.0601899, 39.9714918], [-3.057632, 39.970988], [-3.0554507, 39.9705987], [-3.0524685, 39.9701682], [-3.0491755, 39.969788], [-3.0460866, 39.9695331], [-3.042566, 39.9693675], [-3.0401714, 39.9693141], [-3.0374581, 39.9693004], [-3.0348763, 39.9693554], [-3.032432, 39.9694882], [-3.0293483, 39.9697035], [-3.0259617, 39.9700477], [-3.0224477, 39.9705515], [-3.0194655, 39.971069], [-3.016549, 39.9716507], [-3.0141249, 39.972222], [-3.0113947, 39.972918], [-3.0083467, 39.9737515], [-3.0068135, 39.9741828], [-3.0014904, 39.9756436], [-3.0006357, 39.9758822], [-2.9978736, 39.9766532], [-2.9947307, 39.9775193], [-2.9925198, 39.978138], [-2.9905624, 39.978664]]}}, {"type": "Feature", "properties": {}, "geometry": {"type": "LineString", "coordinates": [[-3.1511658, 39.9773173], [-3.151066, 39.9773485]]}}, {"type": "Feature", "properties": {}, "geometry": {"type": "LineString", "coordinates": [[-3.2383097, 39.9530844], [-3.2362228, 39.95349], [-3.2342681, 39.9539085], [-3.2321273, 39.9544064], [-3.2294611, 39.9550995], [-3.2277221, 39.9555969], [-3.2261775, 39.9560615], [-3.2238198, 39.9568253], [-3.2222584, 39.9573609], [-3.2206392, 39.9579489], [-3.2189501, 39.9586103], [-3.2129967, 39.9609873], [-3.2109184, 39.9617759], [-3.2083507, 39.9626767], [-3.2068852, 39.9631577], [-3.2047607, 39.9638082], [-3.2030159, 39.9643076], [-3.2011411, 39.9648052], [-3.1998211, 39.9651364], [-3.1982821, 39.9654918], [-3.1967598, 39.9658237], [-3.1957361, 39.9660384], [-3.194175, 39.9663298], [-3.1920863, 39.9666939], [-3.1872783, 39.967468], [-3.1833937, 39.9681276], [-3.181553, 39.9684711], [-3.1789245, 39.9690449], [-3.1768854, 39.9695322], [-3.1742327, 39.9702274], [-3.1719963, 39.9708819], [-3.168703, 39.9718884], [-3.1678231, 39.9721619], [-3.1553057, 39.9760518], [-3.1511658, 39.9773173]]}}, {"type": "Feature", "properties": {}, "geometry": {"type": "LineString", "coordinates": [[-3.2417373, 39.9525179], [-3.2383097, 39.9530844]]}}, {"type": "Feature", "properties": {}, "geometry": {"type": "LineString", "coordinates": [[-3.3390934, 39.9616073], [-3.3365835, 39.9619363], [-3.3335309, 39.9622407], [-3.3316013, 39.9623792], [-3.3294046, 39.9625068], [-3.3276437, 39.9625623], [-3.3253987, 39.9625922], [-3.3240375, 39.9625819], [-3.3228541, 39.9625593], [-3.320965, 39.9624914], [-3.3192499, 39.9623984], [-3.3173883, 39.9622766], [-3.3153256, 39.962086], [-3.3135943, 39.9618932], [-3.3114489, 39.9616143], [-3.3098859, 39.9613844], [-3.3081923, 39.9610935], [-3.3066261, 39.9608025], [-3.3049683, 39.9604664], [-3.3035153, 39.9601391], [-3.3017068, 39.959715], [-3.2996187, 39.9591605], [-3.2980117, 39.958703], [-3.2953877, 39.9578914], [-3.2899947, 39.956159], [-3.2877566, 39.955477], [-3.2850783, 39.9547502], [-3.2831141, 39.9542593], [-3.2810423, 39.953785], [-3.2771263, 39.9530157], [-3.2743433, 39.9525555], [-3.2717419, 39.9521967], [-3.268571, 39.9518357], [-3.2668378, 39.9516799], [-3.2644703, 39.9515218], [-3.262617, 39.9514227], [-3.2606806, 39.9513542], [-3.2586316, 39.9513226], [-3.2569663, 39.9513226], [-3.2553271, 39.951356], [-3.2528409, 39.9514374], [-3.2501233, 39.9515989], [-3.2475134, 39.9518228], [-3.2450629, 39.952073], [-3.2417373, 39.9525179]]}}, {"type": "Feature", "properties": {}, "geometry": {"type": "LineString", "coordinates": [[-3.3430178, 39.9609556], [-3.3409894, 39.961318], [-3.3390934, 39.9616073]]}}, {"type": "Feature", "properties": {}, "geometry": {"type": "LineString", "coordinates": [[-3.4898887, 39.9391366], [-3.4880425, 39.9389822], [-3.4862108, 39.9388614], [-3.4850022, 39.9388176], [-3.4830925, 39.9387603], [-3.4816134, 39.9387534], [-3.4800951, 39.9387734], [-3.4787218, 39.9388201], [-3.477252, 39.9388968], [-3.4755389, 39.9390109], [-3.4738984, 39.9391585], [-3.4718356, 39.939396], [-3.4697405, 39.9396824], [-3.4677933, 39.9400064], [-3.4659915, 39.9403572], [-3.4632695, 39.9409555], [-3.4578671, 39.9422512], [-3.4561975, 39.942624], [-3.4543875, 39.9429799], [-3.4528546, 39.9432512], [-3.4512336, 39.9435037], [-3.4490033, 39.9438093], [-3.4471777, 39.9440081], [-3.4451605, 39.944193], [-3.4427167, 39.9443418], [-3.4409991, 39.9444068], [-3.4389916, 39.9444441], [-3.4374604, 39.9444372], [-3.4301968, 39.9442612], [-3.4283927, 39.9442489], [-3.4267332, 39.9442589], [-3.4249717, 39.9443043], [-3.4231007, 39.9443843], [-3.4215036, 39.9444811], [-3.4191329, 39.9446741], [-3.4165736, 39.9449467], [-3.4135238, 39.9453632], [-3.4110926, 39.9457663], [-3.4092355, 39.9461198], [-3.406246, 39.9467494], [-3.3903015, 39.9503625], [-3.3826502, 39.9520962], [-3.3739595, 39.9540612], [-3.3715714, 39.9545871], [-3.3662936, 39.9557831], [-3.3481097, 39.9599037], [-3.3454429, 39.9604798], [-3.3430178, 39.9609556]]}}, {"type": "Feature", "properties": {}, "geometry": {"type": "LineString", "coordinates": [[-3.4921197, 39.9393877], [-3.4898887, 39.9391366]]}}, {"type": "Feature", "properties": {}, "geometry": {"type": "LineString", "coordinates": [[-3.5164372, 39.9466838], [-3.5141985, 39.9455983], [-3.5120355, 39.9446552], [-3.509915, 39.9438063], [-3.505727, 39.9423386], [-3.5021044, 39.9412908], [-3.4985785, 39.9404671], [-3.4964556, 39.9400669], [-3.4942961, 39.9397039], [-3.4921197, 39.9393877]]}}, {"type": "Feature", "properties": {}, "geometry": {"type": "LineString", "coordinates": [[-3.5237847, 39.9510549], [-3.5182508, 39.9475468], [-3.5164372, 39.9466838]]}}, {"type": "Feature", "properties": {}, "geometry": {"type": "LineString", "coordinates": [[-3.5280955, 39.9541311], [-3.5250962, 39.9519644], [-3.5237847, 39.9510549]]}}, {"type": "Feature", "properties": {}, "geometry": {"type": "LineString", "coordinates": [[-3.5296754, 39.9552648], [-3.5280955, 39.9541311]]}}, {"type": "Feature", "properties": {}, "geometry": {"type": "LineString", "coordinates": [[-3.537152, 39.9604438], [-3.5361422, 39.9598177], [-3.5352883, 39.9592575], [-3.5339331, 39.9583401], [-3.5296754, 39.9552648]]}}, {"type": "Feature", "properties": {}, "geometry": {"type": "LineString", "coordinates": [[-3.540934, 39.9626353], [-3.537152, 39.9604438]]}}, {"type": "Feature", "properties": {}, "geometry": {"type": "LineString", "coordinates": [[-3.6020678, 39.9924461], [-3.6011044, 39.9912626], [-3.6002194, 39.9902807], [-3.5994088, 39.989405], [-3.5982451, 39.9882224], [-3.5968219, 39.9868708], [-3.595344, 39.9855661], [-3.5937439, 39.9842488], [-3.5910605, 39.9822244], [-3.5887859, 39.9807066], [-3.5863478, 39.9792196], [-3.5852602, 39.978602], [-3.5824388, 39.9771283], [-3.5810588, 39.9764706], [-3.5799212, 39.9759527], [-3.5786673, 39.9754059], [-3.5774566, 39.9749126], [-3.5758433, 39.9743031], [-3.5737052, 39.9735529], [-3.5722112, 39.9730729], [-3.5707387, 39.9726146], [-3.5675374, 39.9717492], [-3.5569971, 39.9689651], [-3.5557518, 39.9686134], [-3.5544701, 39.968229], [-3.5530428, 39.9677839], [-3.5514794, 39.9672525], [-3.5501842, 39.9667757], [-3.5487714, 39.9662391], [-3.5477941, 39.9658485], [-3.5463775, 39.9652574], [-3.5451816, 39.9647281], [-3.543933, 39.9641484], [-3.5425586, 39.963477], [-3.5416977, 39.963037], [-3.540934, 39.9626353]]}}, {"type": "Feature", "properties": {}, "geometry": {"type": "LineString", "coordinates": [[-3.6029158, 39.9934636], [-3.6020678, 39.9924461]]}}, {"type": "Feature", "properties": {}, "geometry": {"type": "LineString", "coordinates": [[-3.6234068, 40.0086105], [-3.6214017, 40.0077944], [-3.6186575, 40.0065112], [-3.6160311, 40.0050905], [-3.6135344, 40.0035389], [-3.6111782, 40.0018631], [-3.6089732, 40.0000706], [-3.6069292, 39.9981694], [-3.6050553, 39.9961679], [-3.6029158, 39.9934636]]}}, {"type": "Feature", "properties": {}, "geometry": {"type": "LineString", "coordinates": [[-3.6234068, 40.0086105], [-3.6242117, 40.0089095]]}}, {"type": "Feature", "properties": {}, "geometry": {"type": "LineString", "coordinates": [[-3.6242117, 40.0089095], [-3.6253919, 40.0093358], [-3.626505, 40.0096941], [-3.6270706, 40.0098672]]}}, {"type": "Feature", "properties": {}, "geometry": {"type": "LineString", "coordinates": [[-3.6270706, 40.0098672], [-3.6278873, 40.010117], [-3.6300161, 40.0106798], [-3.6347209, 40.0119112], [-3.6362356, 40.0123544], [-3.6377042, 40.0128172], [-3.6393244, 40.0133991], [-3.6409407, 40.014029], [-3.6427371, 40.014802], [-3.6442952, 40.0155551], [-3.6452961, 40.0160818], [-3.6463593, 40.0166307], [-3.646954, 40.0169723]]}}, {"type": "Feature", "properties": {}, "geometry": {"type": "LineString", "coordinates": [[-3.6485605, 40.0179332], [-3.6476059, 40.0173456], [-3.646954, 40.0169723]]}}, {"type": "Feature", "properties": {}, "geometry": {"type": "LineString", "coordinates": [[-3.6512937, 40.0197811], [-3.6501388, 40.0189706], [-3.648947, 40.018171], [-3.6485605, 40.0179332]]}}, {"type": "Feature", "properties": {}, "geometry": {"type": "LineString", "coordinates": [[-3.6515271, 40.0199456], [-3.6512937, 40.0197811]]}}, {"type": "Feature", "properties": {}, "geometry": {"type": "LineString", "coordinates": [[-3.6594171, 40.027744], [-3.6588256, 40.0269471], [-3.6577185, 40.0256032], [-3.6568178, 40.0246374], [-3.6556244, 40.0234339], [-3.6542622, 40.0221765], [-3.6533508, 40.0213982], [-3.6515271, 40.0199456]]}}, {"type": "Feature", "properties": {}, "geometry": {"type": "LineString", "coordinates": [[-3.6630284, 40.0326859], [-3.6618856, 40.0310692], [-3.6594171, 40.027744]]}}, {"type": "Feature", "properties": {}, "geometry": {"type": "LineString", "coordinates": [[-3.6687006, 40.0412602], [-3.6681778, 40.0403079], [-3.6675252, 40.0392024], [-3.6667138, 40.0379056], [-3.6658823, 40.0366707], [-3.6630284, 40.0326859]]}}, {"type": "Feature", "properties": {}, "geometry": {"type": "LineString", "coordinates": [[-3.669399, 40.0426191], [-3.6687006, 40.0412602]]}}, {"type": "Feature", "properties": {}, "geometry": {"type": "LineString", "coordinates": [[-3.6724978, 40.051155], [-3.6717455, 40.048253], [-3.6707106, 40.0454024], [-3.669399, 40.0426191]]}}, {"type": "Feature", "properties": {}, "geometry": {"type": "LineString", "coordinates": [[-3.6744333, 40.0917739], [-3.6752134, 40.0888648], [-3.6755956, 40.0871247], [-3.6759027, 40.0853087], [-3.6760784, 40.08375], [-3.6761565, 40.0828856], [-3.6762089, 40.081661], [-3.6762259, 40.0800848], [-3.6761993, 40.0790576], [-3.6760929, 40.0774501], [-3.6758149, 40.0749395], [-3.6735713, 40.0575713], [-3.6732464, 40.0551162], [-3.6730267, 40.0536593], [-3.6727813, 40.0524274], [-3.6724978, 40.051155]]}}, {"type": "Feature", "properties": {}, "geometry": {"type": "LineString", "coordinates": [[-3.6894342, 40.1343541], [-3.6882188, 40.1330806], [-3.6873886, 40.1321316], [-3.6866974, 40.1312918], [-3.6859922, 40.1303904], [-3.6854472, 40.1296591], [-3.684931, 40.1289331], [-3.6841692, 40.1277917], [-3.6829784, 40.1258208], [-3.6768886, 40.1151087], [-3.6761133, 40.1136202], [-3.6756067, 40.1125769], [-3.6749093, 40.1108979], [-3.6744503, 40.1096107], [-3.6737918, 40.1072977], [-3.6735049, 40.1060002], [-3.6733843, 40.1052249], [-3.6732165, 40.1040799], [-3.6730764, 40.1024919], [-3.6730063, 40.1011584], [-3.6730309, 40.0996484], [-3.673136, 40.0980391], [-3.6733132, 40.0966552], [-3.6738039, 40.0941209], [-3.6744333, 40.0917739]]}}, {"type": "Feature", "properties": {}, "geometry": {"type": "LineString", "coordinates": [[-3.6907937, 40.135686], [-3.6894342, 40.1343541]]}}, {"type": "Feature", "properties": {}, "geometry": {"type": "LineString", "coordinates": [[-3.7168832, 40.1568386], [-3.7139939, 40.1545182], [-3.7084601, 40.1500739], [-3.7022644, 40.1450828], [-3.6969118, 40.1407705], [-3.6930492, 40.1376586], [-3.6918819, 40.1366678], [-3.6907937, 40.135686]]}}, {"type": "Feature", "properties": {}, "geometry": {"type": "LineString", "coordinates": [[-3.7227891, 40.1616238], [-3.7168832, 40.1568386]]}}, {"type": "Feature", "properties": {}, "geometry": {"type": "LineString", "coordinates": [[-3.7369196, 40.172935], [-3.7263248, 40.1644157], [-3.7237158, 40.1623452], [-3.7227891, 40.1616238]]}}, {"type": "Feature", "properties": {}, "geometry": {"type": "LineString", "coordinates": [[-3.7472291, 40.1828114], [-3.7468221, 40.1821998], [-3.7460849, 40.1811688], [-3.745356, 40.1802873], [-3.7446682, 40.1795168], [-3.7440529, 40.178882], [-3.7434112, 40.1782462], [-3.7423451, 40.1773076], [-3.7386225, 40.1743042], [-3.7369196, 40.172935]]}}, {"type": "Feature", "properties": {}, "geometry": {"type": "LineString", "coordinates": [[-3.7487581, 40.1856541], [-3.7485065, 40.1850968], [-3.7483318, 40.184734], [-3.747966, 40.1840404], [-3.7476441, 40.1834718], [-3.7472291, 40.1828114]]}}, {"type": "Feature", "properties": {}, "geometry": {"type": "LineString", "coordinates": [[-3.7495447, 40.2035406], [-3.7497256, 40.2004881], [-3.7497731, 40.1996252], [-3.7498559, 40.1984796], [-3.7499828, 40.1971623], [-3.7501641, 40.1957124], [-3.7502751, 40.1946882], [-3.7503207, 40.1939933], [-3.7503411, 40.1933818], [-3.7503371, 40.1925438], [-3.7503009, 40.1918779], [-3.7502544, 40.1912981], [-3.7501828, 40.1907224], [-3.7500526, 40.1898926], [-3.7498755, 40.1890059], [-3.7496732, 40.1882318], [-3.749413, 40.1873763], [-3.7491259, 40.1865723], [-3.7487581, 40.1856541]]}}, {"type": "Feature", "properties": {}, "geometry": {"type": "LineString", "coordinates": [[-3.7492779, 40.2069104], [-3.7494752, 40.204419], [-3.7495447, 40.2035406]]}}, {"type": "Feature", "properties": {}, "geometry": {"type": "LineString", "coordinates": [[-3.7491543, 40.2090661], [-3.7492779, 40.2069104]]}}, {"type": "Feature", "properties": {}, "geometry": {"type": "LineString", "coordinates": [[-3.7491504, 40.2091505], [-3.7491543, 40.2090661]]}}, {"type": "Feature", "properties": {}, "geometry": {"type": "LineString", "coordinates": [[-3.7483206, 40.2184961], [-3.7485333, 40.2173426], [-3.7486137, 40.2166201], [-3.7487194, 40.2156966], [-3.7488096, 40.214765], [-3.7491504, 40.2091505]]}}, {"type": "Feature", "properties": {}, "geometry": {"type": "LineString", "coordinates": [[-3.7478276, 40.2207098], [-3.7481227, 40.2196093], [-3.7483206, 40.2184961]]}}, {"type": "Feature", "properties": {}, "geometry": {"type": "LineString", "coordinates": [[-3.7313951, 40.2605248], [-3.7324886, 40.2595424], [-3.7332926, 40.2587561], [-3.7342027, 40.2578172], [-3.7350895, 40.256832], [-3.7361455, 40.2555884], [-3.736859, 40.2546451], [-3.7375778, 40.2536458], [-3.7382339, 40.252656], [-3.7387244, 40.2518628], [-3.7393469, 40.2507887], [-3.7396717, 40.2502], [-3.7400731, 40.2493522], [-3.7404365, 40.2485985], [-3.7407369, 40.2479273], [-3.741205, 40.2467815], [-3.7417138, 40.2452975], [-3.7419981, 40.2443352], [-3.7428127, 40.2411738], [-3.7469734, 40.2242119], [-3.7478276, 40.2207098]]}}, {"type": "Feature", "properties": {}, "geometry": {"type": "LineString", "coordinates": [[-3.704351, 40.2816109], [-3.7052947, 40.2810603], [-3.7061195, 40.2805457], [-3.7070318, 40.279951], [-3.7077963, 40.2794154], [-3.7086475, 40.2787808], [-3.7093797, 40.2782022], [-3.7098686, 40.2777959], [-3.7106491, 40.2771218], [-3.7112338, 40.2765822], [-3.7125355, 40.2753015], [-3.7137992, 40.2739546], [-3.7150859, 40.2726007], [-3.7156588, 40.2720513], [-3.7169087, 40.2709012], [-3.7181089, 40.2698862], [-3.7193227, 40.2689375], [-3.7207369, 40.2679163], [-3.7225963, 40.2666903], [-3.7249634, 40.2652055], [-3.7265798, 40.2641763], [-3.7275862, 40.2634976], [-3.7286474, 40.2627341], [-3.7294829, 40.2621006], [-3.7304755, 40.2613031], [-3.7313951, 40.2605248]]}}, {"type": "Feature", "properties": {}, "geometry": {"type": "LineString", "coordinates": [[-3.7034446, 40.2821067], [-3.704351, 40.2816109]]}}, {"type": "Feature", "properties": {}, "geometry": {"type": "LineString", "coordinates": [[-3.6916467, 40.2863806], [-3.6934105, 40.2859097], [-3.6945357, 40.2856089], [-3.696026, 40.285171], [-3.6970047, 40.2848611], [-3.697982, 40.2845221], [-3.6988263, 40.2842088], [-3.6993998, 40.2839843], [-3.6999981, 40.2837414], [-3.7006163, 40.2834753], [-3.7014888, 40.2830858], [-3.7024078, 40.2826404], [-3.7034446, 40.2821067]]}}, {"type": "Feature", "properties": {}, "geometry": {"type": "LineString", "coordinates": [[-3.6905836, 40.2866681], [-3.6916467, 40.2863806]]}}, {"type": "Feature", "properties": {}, "geometry": {"type": "LineString", "coordinates": [[-3.6658719, 40.3008565], [-3.6683026, 40.2991459], [-3.6688801, 40.2987396], [-3.6758419, 40.2938436], [-3.6778954, 40.2924126], [-3.6786789, 40.2918947], [-3.6795822, 40.2913264], [-3.6804239, 40.2908272], [-3.681185, 40.2904017], [-3.6818716, 40.2900382], [-3.6826688, 40.2896303], [-3.6834387, 40.2892626], [-3.6842457, 40.2888957], [-3.68512, 40.2885212], [-3.6859687, 40.2881784], [-3.6869591, 40.287811], [-3.6879568, 40.2874641], [-3.6889252, 40.2871588], [-3.6897574, 40.2868984], [-3.6905836, 40.2866681]]}}, {"type": "Feature", "properties": {}, "geometry": {"type": "LineString", "coordinates": [[-3.6497025, 40.3157103], [-3.650178, 40.3147259], [-3.6505795, 40.3140012], [-3.6511082, 40.3131259], [-3.6516115, 40.3123918], [-3.6520287, 40.3118263], [-3.6527415, 40.3109432], [-3.6533263, 40.3102925], [-3.6538086, 40.3098029], [-3.6543689, 40.3092541], [-3.655448, 40.3082916], [-3.656504, 40.3074717], [-3.6577488, 40.306574], [-3.6608487, 40.3043914], [-3.6658719, 40.3008565]]}}, {"type": "Feature", "properties": {}, "geometry": {"type": "LineString", "coordinates": [[-3.6493147, 40.3166667], [-3.6497025, 40.3157103]]}}, {"type": "Feature", "properties": {}, "geometry": {"type": "LineString", "coordinates": [[-3.6483547, 40.3208331], [-3.6484177, 40.3202295], [-3.6485057, 40.3196277], [-3.6486184, 40.3190283], [-3.6487558, 40.318432], [-3.6489178, 40.3178392], [-3.6491041, 40.3172505], [-3.6493147, 40.3166667]]}}, {"type": "Feature", "properties": {}, "geometry": {"type": "LineString", "coordinates": [[-3.6484357, 40.3244413], [-3.6482797, 40.3232416], [-3.6482529, 40.3220362], [-3.6483547, 40.3208331]]}}, {"type": "Feature", "properties": {}, "geometry": {"type": "LineString", "coordinates": [[-3.6489819, 40.3269831], [-3.6487538, 40.3261418], [-3.6485716, 40.3252941], [-3.6484357, 40.3244413]]}}, {"type": "Feature", "properties": {}, "geometry": {"type": "LineString", "coordinates": [[-3.6492021, 40.3276521], [-3.6489819, 40.3269831]]}}, {"type": "Feature", "properties": {}, "geometry": {"type": "LineString", "coordinates": [[-3.6675178, 40.3496626], [-3.6651232, 40.347436], [-3.6636084, 40.3459139], [-3.6628057, 40.3450999], [-3.6611386, 40.3433115], [-3.6576896, 40.339395], [-3.6567905, 40.3383639], [-3.6523651, 40.3332717], [-3.6519092, 40.3326851], [-3.6514784, 40.3320876], [-3.6510733, 40.3314798], [-3.6506941, 40.3308622], [-3.6503414, 40.3302356], [-3.6500156, 40.3296007], [-3.6497168, 40.328958], [-3.6494456, 40.3283082], [-3.6492021, 40.3276521]]}}, {"type": "Feature", "properties": {}, "geometry": {"type": "LineString", "coordinates": [[-3.6720167, 40.3546637], [-3.6717121, 40.3542218], [-3.6712679, 40.3536164], [-3.6707352, 40.3529251], [-3.6702959, 40.3524047], [-3.6696934, 40.3517403], [-3.6690152, 40.3510531], [-3.6675178, 40.3496626]]}}, {"type": "Feature", "properties": {}, "geometry": {"type": "LineString", "coordinates": [[-3.6722531, 40.3550345], [-3.6720167, 40.3546637]]}}, {"type": "Feature", "properties": {}, "geometry": {"type": "LineString", "coordinates": [[-3.6749169, 40.3606724], [-3.6739752, 40.3584824], [-3.6736272, 40.3576853], [-3.6733325, 40.3570463], [-3.6729647, 40.3562923], [-3.6725919, 40.3556209], [-3.6722531, 40.3550345]]}}, {"type": "Feature", "properties": {}, "geometry": {"type": "LineString", "coordinates": [[-3.6754349, 40.361883], [-3.6749169, 40.3606724]]}}, {"type": "Feature", "properties": {}, "geometry": {"type": "LineString", "coordinates": [[-3.6768467, 40.3651729], [-3.6761372, 40.363518], [-3.6754349, 40.361883]]}}, {"type": "Feature", "properties": {}, "geometry": {"type": "LineString", "coordinates": [[-3.6811116, 40.375023], [-3.6798526, 40.3730708], [-3.6793354, 40.3721709], [-3.6791791, 40.3718736], [-3.6790409, 40.3715975], [-3.6786743, 40.370817], [-3.6785215, 40.3704865], [-3.6783465, 40.3700853], [-3.6781834, 40.3696779], [-3.6780673, 40.3693379], [-3.6779246, 40.3688456], [-3.6777871, 40.3682867], [-3.677601, 40.3674685], [-3.6774993, 40.3670577], [-3.6773799, 40.3666166], [-3.6772679, 40.3662671], [-3.6771495, 40.3659357], [-3.6770083, 40.3655644], [-3.6768467, 40.3651729]]}}, {"type": "Feature", "properties": {}, "geometry": {"type": "LineString", "coordinates": [[-3.6734087, 40.3940512], [-3.6731465, 40.3932192], [-3.673055, 40.3927765], [-3.673025, 40.3924117], [-3.6730122, 40.3920395], [-3.673036, 40.3916117], [-3.6730837, 40.3912753], [-3.6731655, 40.3908811], [-3.6732709, 40.3905571], [-3.6733677, 40.3902845], [-3.6735245, 40.3899378], [-3.6736439, 40.3896964], [-3.6738887, 40.3892974], [-3.6740613, 40.3890515], [-3.6744991, 40.3885285], [-3.6747631, 40.3882522], [-3.6758167, 40.3872097], [-3.677479, 40.3855819], [-3.681081, 40.3820317], [-3.6814569, 40.3816248], [-3.6817464, 40.3812672], [-3.6819764, 40.3809064], [-3.6821603, 40.3805396], [-3.6822974, 40.3802029], [-3.6823801, 40.3799024], [-3.6824586, 40.3795086], [-3.6824852, 40.3790696], [-3.6824595, 40.3786221], [-3.6824069, 40.378222], [-3.6822567, 40.3775557], [-3.6820534, 40.3768746], [-3.6818144, 40.3762406], [-3.6815532, 40.3757127], [-3.6811116, 40.375023]]}}, {"type": "Feature", "properties": {}, "geometry": {"type": "LineString", "coordinates": [[-3.673571, 40.3945211], [-3.6734087, 40.3940512]]}}, {"type": "Feature", "properties": {}, "geometry": {"type": "LineString", "coordinates": [[-3.6736439, 40.3947268], [-3.673571, 40.3945211]]}}, {"type": "Feature", "properties": {}, "geometry": {"type": "LineString", "coordinates": [[-3.6765586, 40.3987416], [-3.6761697, 40.3984077], [-3.6758742, 40.3981331], [-3.6756038, 40.3978597], [-3.6752649, 40.3974858], [-3.6750061, 40.3971804], [-3.6747287, 40.396817], [-3.6744219, 40.3963664], [-3.6742691, 40.3961087], [-3.6741299, 40.395864], [-3.673982, 40.3955647], [-3.6738685, 40.3953196], [-3.67379, 40.3951352], [-3.6736439, 40.3947268]]}}, {"type": "Feature", "properties": {}, "geometry": {"type": "LineString", "coordinates": [[-3.6803717, 40.4007141], [-3.6795643, 40.4004625], [-3.6791745, 40.400337], [-3.6789695, 40.4002637], [-3.678796, 40.4002018], [-3.6785311, 40.4000931], [-3.6782599, 40.3999748], [-3.6780726, 40.3998877], [-3.677914, 40.3997981], [-3.6777472, 40.3996978], [-3.6775472, 40.3995609], [-3.6773642, 40.3994142], [-3.6772099, 40.3992839], [-3.6770746, 40.3991704], [-3.6765586, 40.3987416]]}}, {"type": "Feature", "properties": {}, "geometry": {"type": "LineString", "coordinates": [[-3.6810137, 40.4009176], [-3.6803717, 40.4007141]]}}, {"type": "Feature", "properties": {}, "geometry": {"type": "LineString", "coordinates": [[-3.6819615, 40.4012101], [-3.6818315, 40.4011698], [-3.6816174, 40.4011031], [-3.6814532, 40.401052], [-3.6810137, 40.4009176]]}}, {"type": "Feature", "properties": {}, "geometry": {"type": "LineString", "coordinates": [[-3.6830903, 40.4015646], [-3.6826792, 40.4014329], [-3.6826177, 40.4014138], [-3.6822586, 40.4013022], [-3.6819615, 40.4012101]]}}, {"type": "Feature", "properties": {}, "geometry": {"type": "LineString", "coordinates": [[-3.6847222, 40.4020644], [-3.6845159, 40.4020057], [-3.6842207, 40.4019128], [-3.6839862, 40.4018392], [-3.6837381, 40.4017612], [-3.683499, 40.4016904], [-3.6830903, 40.4015646]]}}, {"type": "Feature", "properties": {}, "geometry": {"type": "LineString", "coordinates": [[-3.6864407, 40.4026512], [-3.6862885, 40.4025791], [-3.6861114, 40.4025057], [-3.685956, 40.402452], [-3.6857659, 40.4023928], [-3.6854507, 40.4022952], [-3.685206, 40.4022196], [-3.6849541, 40.4021417], [-3.6847222, 40.4020644]]}}, {"type": "Feature", "properties": {}, "geometry": {"type": "LineString", "coordinates": [[-3.6895522, 40.4053532], [-3.6887663, 40.4046398], [-3.6887387, 40.4046133], [-3.688563, 40.4044529], [-3.6874718, 40.4034506], [-3.6873134, 40.4033125], [-3.687217, 40.4032215], [-3.6870514, 40.4030746], [-3.6869118, 40.4029518], [-3.6867779, 40.4028554], [-3.6866066, 40.4027425], [-3.6864407, 40.4026512]]}}]}
